<?xml version="1.0" encoding="UTF-8"?>
<gpx creator="FootpathAndroid/2.4.2/1599" version="1.1" xchemaLocation="http://www.topografix.com/GPX/1/1 http://www.topografix.com/GPX/1/1/gpx.xsd" xmlns="http://www.topografix.com/GPX/1/1" xmlns:xsi="http://www.w3.org/2001/XMLSchema-instance" xsi:schemaLocation="http://www.topografix.com/GPX/1/1 http://www.topografix.com/GPX/1/1/gpx.xsd http://www.garmin.com/xmlschemas/GpxExtensions/v3 http://www.garmin.com/xmlschemas/GpxExtensionsv3.xsd http://www.garmin.com/xmlschemas/TrackPointExtension/v1 http://www.garmin.com/xmlschemas/TrackPointExtensionv1.xsd http://www.garmin.com/xmlschemas/PowerExtension/v1 http://www.garmin.com/xmlschemas/PowerExtensionv1.xsd http://www.topografix.com/GPX/gpx_style/0/2 http://www.topografix.com/GPX/gpx_style/0/2/gpx_style.xsd" xmlns:gpxtpx="http://www.garmin.com/xmlschemas/TrackPointExtension/v1" xmlns:gpxx="http://www.garmin.com/xmlschemas/GpxExtensions/v3" xmlns:gpxpx="http://www.garmin.com/xmlschemas/PowerExtension/v1" xmlns:gpx_style="http://www.topografix.com/GPX/gpx_style/0/2">
  <metadata>
    <name>Fjellfolkets fortellersti Røldal</name>
    <author>
      <name>gpx.studio</name>
      <link href="https://gpx.studio"/>
    </author>
    <link href="https://footpathapp.com">
      <text>Footpath</text>
    </link>
    <time>2026-05-20T10:06:58.000Z</time>
  </metadata>
  <wpt lat="59.822914" lon="6.813634">
    <name>Røldalspelet</name>
    <sym>generic</sym>
  </wpt>
  <wpt lat="59.822196" lon="6.817984">
    <ele>389.4558085669164</ele>
    <name>Hydro – krafta som endra Røldal</name>
    <link href="https://www.roldal.no/opplevingar/bygderunden#kraftforteljinga"/>
    <sym>generic</sym>
  </wpt>
  <wpt lat="59.824194" lon="6.815846">
    <ele>378.82220650953633</ele>
    <name>Kanalen</name>
    <cmt>Elva som fekk ny veg</cmt>
    <desc>Elva som fekk ny veg</desc>
    <link href="https://www.roldal.no/opplevingar/bygderunden#kanalen"/>
    <sym>generic</sym>
  </wpt>
  <wpt lat="59.827046" lon="6.811298">
    <ele>379.31597321250626</ele>
    <name>Revahuset</name>
    <cmt>Nattjakt i fjellet</cmt>
    <desc>Nattjakt i fjellet</desc>
    <link href="https://www.roldal.no/opplevingar/bygderunden#revahuset"/>
    <sym>generic</sym>
  </wpt>
  <wpt lat="59.829025" lon="6.809055">
    <ele>382.6724878203163</ele>
    <name>Laksastein</name>
    <cmt>Historia om laksen i Røldalsvatnet</cmt>
    <desc>Historia om laksen i Røldalsvatnet</desc>
    <link href="https://www.roldal.no/opplevingar/bygderunden#laksastein"/>
    <sym>generic</sym>
  </wpt>
  <wpt lat="59.83001" lon="6.810659">
    <ele>387.0563911928771</ele>
    <name>Jernalderutstilling og gravhaug på Seim</name>
    <cmt>Spor etter menneske frå jernalderen og Vikingtida</cmt>
    <desc>Spor etter menneske frå jernalderen og Vikingtida</desc>
    <link href="https://www.roldal.no/opplevingar/bygderunden#jernalder"/>
    <sym>generic</sym>
  </wpt>
  <wpt lat="59.833326" lon="6.81688">
    <ele>401.1087142953096</ele>
    <name>Steinparken</name>
    <sym>generic</sym>
  </wpt>
  <wpt lat="59.834999" lon="6.824841">
    <ele>414.67439542379503</ele>
    <name>Krokenteig – modernismen kjem til Røldal</name>
    <cmt>Arkitektur i Røldal-serien</cmt>
    <desc>Arkitektur i Røldal-serien</desc>
    <link href="https://www.roldal.no/opplevingar/bygderunden#krokenteig"/>
    <sym>generic</sym>
  </wpt>
  <wpt lat="59.830848" lon="6.822481">
    <ele>388.97755072886457</ele>
    <name>Slangen som vaktar paradisporten</name>
    <cmt>Ei forteljing for små oppdagarar!</cmt>
    <desc>Ei forteljing for små oppdagarar!</desc>
    <link href="https://www.roldal.no/opplevingar/bygderunden#slangen "/>
    <sym>generic</sym>
  </wpt>
  <wpt lat="59.829568" lon="6.828273">
    <ele>391.5091810947769</ele>
    <name>Fjetland </name>
    <cmt>Den frodige slåttemarka i Røldal</cmt>
    <desc>Den frodige slåttemarka i Røldal</desc>
    <link href="https://www.roldal.no/opplevingar/bygderunden#fjetland"/>
    <sym>generic</sym>
  </wpt>
  <wpt lat="59.834969" lon="6.82472">
    <ele>414.54340648402126</ele>
    <name>Røldal bygdemuseum </name>
    <cmt>Livet på garden Hauge</cmt>
    <desc>Livet på garden Hauge</desc>
    <link href="https://www.roldal.no/opplevingar/bygderunden#bygdemuseum"/>
    <sym>generic</sym>
  </wpt>
  <wpt lat="59.83451" lon="6.828103">
    <ele>418.56331357265674</ele>
    <name>Pilegrimsvegen til Røldal</name>
    <link href="https://www.roldal.no/opplevingar/bygderunden#pilegrimsveg"/>
    <sym>generic</sym>
  </wpt>
  <wpt lat="59.830849" lon="6.822715">
    <ele>389.11374537406886</ele>
    <name>Røldal stavkyrkje</name>
    <cmt>pilegrimsmål i over 700 år</cmt>
    <desc>pilegrimsmål i over 700 år</desc>
    <link href="https://www.roldal.no/opplevingar/bygderunden#roldal-stavkyrkje"/>
    <sym>generic</sym>
  </wpt>
  <wpt lat="59.829513" lon="6.812215">
    <ele>385.7423485259769</ele>
    <name>Gravhaug på Seim</name>
    <cmt>Eitt av dei viktigaste gravfelta frå jernalderen i Hardanger.</cmt>
    <desc>Eitt av dei viktigaste gravfelta frå jernalderen i Hardanger.</desc>
    <link href="https://www.roldal.no/opplevingar/bygderunden#jernalder"/>
    <sym>generic</sym>
  </wpt>
  <wpt lat="59.833366" lon="6.817197">
    <ele>399.95095221093425</ele>
    <name>Kalvatræet</name>
    <cmt>Verdas minste litteraturhus</cmt>
    <desc>Verdas minste litteraturhus</desc>
    <link href="https://www.roldal.no/opplevingar/bygderunden#kalvatraeet"/>
    <sym>generic</sym>
  </wpt>
  <wpt lat="59.833334" lon="6.817093">
    <ele>400.177502944794</ele>
    <name>Kalvatræet</name>
    <cmt>Arkitektur i Røldal-serien
Arkitektur i Røldal-serien
</cmt>
    <desc>Arkitektur i Røldal-serien
Arkitektur i Røldal-serien
</desc>
    <link href="https://www.roldal.no/opplevingar/bygderunden#kalvatraeet-arkitektur"/>
  </wpt>
  <wpt lat="59.835038" lon="6.824381">
    <ele>416.79014566260474</ele>
    <name>Røldal Bygdemuseum –tradisjonell byggjeskikk i fjellbygda</name>
    <cmt>Arkitektur i Røldal-serien</cmt>
    <desc>Arkitektur i Røldal-serien</desc>
    <link href="https://www.roldal.no/opplevingar/bygderunden#bygdemuseum-arkitektur"/>
  </wpt>
  <wpt lat="59.84278" lon="6.827657">
    <ele>892.7630007953792</ele>
    <name>Havrenos</name>
    <cmt>Utsikt over heile Røldal</cmt>
    <desc>Utsikt over heile Røldal</desc>
    <link href=" https://www.roldal.no/opplevingar/bygderunden#havrenos"/>
  </wpt>
  <wpt lat="59.822182" lon="6.817929">
    <ele>389.43976120643924</ele>
    <name>Kraftstasjonen i Røldal – monumental modernisme i fjellet</name>
    <cmt>Arkitektur i Røldal-serien</cmt>
    <desc>Arkitektur i Røldal-serien</desc>
    <link href="https://www.roldal.no/opplevingar/bygderunden#røldal-kraftstasjon-arkitektur"/>
  </wpt>
  <trk>
    <name>Fjellfolkets fortellersti Røldal</name>
    <trkseg>
      <trkpt lat="59.83241" lon="6.81841">
        <ele>398.69964599609375</ele>
        <time>2000-01-01T00:00:00.000Z</time>
      </trkpt>
      <trkpt lat="59.83249" lon="6.81826">
        <ele>399.5972595214844</ele>
        <time>2000-01-01T00:00:00.000Z</time>
      </trkpt>
      <trkpt lat="59.83259101750905" lon="6.818014664966467">
        <ele>400.89886474609375</ele>
        <time>2000-01-01T00:00:00.000Z</time>
      </trkpt>
      <trkpt lat="59.83276170455728" lon="6.8176001459403">
        <ele>401.879150390625</ele>
        <time>2000-01-01T00:00:00.000Z</time>
      </trkpt>
      <trkpt lat="59.83277" lon="6.81758">
        <ele>401.8863220214844</ele>
        <time>2000-01-01T00:00:00.000Z</time>
      </trkpt>
      <trkpt lat="59.83288" lon="6.8173">
        <ele>401.9840393066406</ele>
        <time>2000-01-01T00:00:00.000Z</time>
      </trkpt>
      <trkpt lat="59.83292" lon="6.81716">
        <ele>402.0282897949219</ele>
        <time>2000-01-01T00:00:00.000Z</time>
      </trkpt>
      <trkpt lat="59.83294" lon="6.81703">
        <ele>402.0650634765625</ele>
        <time>2000-01-01T00:00:00.000Z</time>
      </trkpt>
      <trkpt lat="59.833" lon="6.81706">
        <ele>402.0387878417969</ele>
        <time>2000-01-01T00:00:00.000Z</time>
      </trkpt>
      <trkpt lat="59.83305" lon="6.81712">
        <ele>402.0140075683594</ele>
        <time>2000-01-01T00:00:00.000Z</time>
      </trkpt>
      <trkpt lat="59.83319" lon="6.81727">
        <ele>401.94647216796875</ele>
        <time>2000-01-01T00:00:00.000Z</time>
      </trkpt>
      <trkpt lat="59.83328" lon="6.81734">
        <ele>401.90545654296875</ele>
        <time>2000-01-01T00:00:00.000Z</time>
      </trkpt>
      <trkpt lat="59.83334" lon="6.81741">
        <ele>401.87591552734375</ele>
        <time>2000-01-01T00:00:00.000Z</time>
      </trkpt>
      <trkpt lat="59.83342" lon="6.81755">
        <ele>401.8308410644531</ele>
        <time>2000-01-01T00:00:00.000Z</time>
      </trkpt>
      <trkpt lat="59.83346" lon="6.81773">
        <ele>401.8216552734375</ele>
        <time>2000-01-01T00:00:00.000Z</time>
      </trkpt>
      <trkpt lat="59.8335" lon="6.81799">
        <ele>401.8089599609375</ele>
        <time>2000-01-01T00:00:00.000Z</time>
      </trkpt>
      <trkpt lat="59.83358384960103" lon="6.818390615010417">
        <ele>401.7886962890625</ele>
        <time>2000-01-01T00:00:00.000Z</time>
      </trkpt>
      <trkpt lat="59.83359" lon="6.81842">
        <ele>401.8056335449219</ele>
        <time>2000-01-01T00:00:00.000Z</time>
      </trkpt>
      <trkpt lat="59.83368367097672" lon="6.818888355901293">
        <ele>402.0736999511719</ele>
        <time>2000-01-01T00:00:00.000Z</time>
      </trkpt>
      <trkpt lat="59.8337" lon="6.81897">
        <ele>402.1559753417969</ele>
        <time>2000-01-01T00:00:00.000Z</time>
      </trkpt>
      <trkpt lat="59.83378676918684" lon="6.819383439289523">
        <ele>402.5755615234375</ele>
        <time>2000-01-01T00:00:00.000Z</time>
      </trkpt>
      <trkpt lat="59.83387" lon="6.81978">
        <ele>403.2325439453125</ele>
        <time>2000-01-01T00:00:00.000Z</time>
      </trkpt>
      <trkpt lat="59.83395" lon="6.82027">
        <ele>404.0201721191406</ele>
        <time>2000-01-01T00:00:00.000Z</time>
      </trkpt>
      <trkpt lat="59.833980742007085" lon="6.820381149325961">
        <ele>404.214111328125</ele>
        <time>2000-01-01T00:00:00.000Z</time>
      </trkpt>
      <trkpt lat="59.83408" lon="6.82074">
        <ele>405.1207580566406</ele>
        <time>2000-01-01T00:00:00.000Z</time>
      </trkpt>
      <trkpt lat="59.83421053074968" lon="6.821349159917591">
        <ele>406.58648681640625</ele>
        <time>2000-01-01T00:00:00.000Z</time>
      </trkpt>
      <trkpt lat="59.83432" lon="6.82186">
        <ele>407.7203674316406</ele>
        <time>2000-01-01T00:00:00.000Z</time>
      </trkpt>
      <trkpt lat="59.83443917748237" lon="6.822318838972767">
        <ele>408.77496337890625</ele>
        <time>2000-01-01T00:00:00.000Z</time>
      </trkpt>
      <trkpt lat="59.83452" lon="6.82263">
        <ele>409.1623840332031</ele>
        <time>2000-01-01T00:00:00.000Z</time>
      </trkpt>
      <trkpt lat="59.83467" lon="6.8233">
        <ele>409.9736633300781</ele>
        <time>2000-01-01T00:00:00.000Z</time>
      </trkpt>
      <trkpt lat="59.83477" lon="6.82392">
        <ele>410.2343444824219</ele>
        <time>2000-01-01T00:00:00.000Z</time>
      </trkpt>
      <trkpt lat="59.83478" lon="6.8242">
        <ele>410.3467102050781</ele>
        <time>2000-01-01T00:00:00.000Z</time>
      </trkpt>
      <trkpt lat="59.834779998513596" lon="6.824328119534953">
        <ele>410.39801025390625</ele>
        <time>2000-01-01T00:00:00.000Z</time>
      </trkpt>
      <trkpt lat="59.83478" lon="6.82474">
        <ele>410.4638366699219</ele>
        <time>2000-01-01T00:00:00.000Z</time>
      </trkpt>
      <trkpt lat="59.8348" lon="6.825">
        <ele>410.505859375</ele>
        <time>2000-01-01T00:00:00.000Z</time>
      </trkpt>
      <trkpt lat="59.83500357502297" lon="6.825840349498474">
        <ele>410.76641845703125</ele>
        <time>2000-01-01T00:00:00.000Z</time>
      </trkpt>
      <trkpt lat="59.83512053940514" lon="6.8263231049970825">
        <ele>411.46429443359375</ele>
        <time>2000-01-01T00:00:00.000Z</time>
      </trkpt>
      <trkpt lat="59.83527" lon="6.82694">
        <ele>412.1498718261719</ele>
        <time>2000-01-01T00:00:00.000Z</time>
      </trkpt>
      <trkpt lat="59.8353" lon="6.82722">
        <ele>412.43646240234375</ele>
        <time>2000-01-01T00:00:00.000Z</time>
      </trkpt>
      <trkpt lat="59.8353" lon="6.82732">
        <ele>412.53643798828125</ele>
        <time>2000-01-01T00:00:00.000Z</time>
      </trkpt>
      <trkpt lat="59.83525" lon="6.82749">
        <ele>412.6933898925781</ele>
        <time>2000-01-01T00:00:00.000Z</time>
      </trkpt>
      <trkpt lat="59.83521" lon="6.82759">
        <ele>412.79522705078125</ele>
        <time>2000-01-01T00:00:00.000Z</time>
      </trkpt>
      <trkpt lat="59.83517" lon="6.82763">
        <ele>412.8662109375</ele>
        <time>2000-01-01T00:00:00.000Z</time>
      </trkpt>
      <trkpt lat="59.83512" lon="6.8277">
        <ele>412.963134765625</ele>
        <time>2000-01-01T00:00:00.000Z</time>
      </trkpt>
      <trkpt lat="59.835" lon="6.8278">
        <ele>412.9828796386719</ele>
        <time>2000-01-01T00:00:00.000Z</time>
      </trkpt>
      <trkpt lat="59.83486831040821" lon="6.827893279827143">
        <ele>413.0032043457031</ele>
        <time>2000-01-01T00:00:00.000Z</time>
      </trkpt>
      <trkpt lat="59.83476" lon="6.82797">
        <ele>412.9842529296875</ele>
        <time>2000-01-01T00:00:00.000Z</time>
      </trkpt>
      <trkpt lat="59.83457" lon="6.82813">
        <ele>412.94671630859375</ele>
        <time>2000-01-01T00:00:00.000Z</time>
      </trkpt>
      <trkpt lat="59.83451" lon="6.82821">
        <ele>412.6324462890625</ele>
        <time>2000-01-01T00:00:00.000Z</time>
      </trkpt>
      <trkpt lat="59.83449" lon="6.82814">
        <ele>412.45635986328125</ele>
        <time>2000-01-01T00:00:00.000Z</time>
      </trkpt>
      <trkpt lat="59.83443" lon="6.82805">
        <ele>412.1294250488281</ele>
        <time>2000-01-01T00:00:00.000Z</time>
      </trkpt>
      <trkpt lat="59.83423" lon="6.82759">
        <ele>410.79937744140625</ele>
        <time>2000-01-01T00:00:00.000Z</time>
      </trkpt>
      <trkpt lat="59.83419" lon="6.82752">
        <ele>410.5675964355469</ele>
        <time>2000-01-01T00:00:00.000Z</time>
      </trkpt>
      <trkpt lat="59.83406" lon="6.82709">
        <ele>409.4703063964844</ele>
        <time>2000-01-01T00:00:00.000Z</time>
      </trkpt>
      <trkpt lat="59.83379" lon="6.82714">
        <ele>408.2903747558594</ele>
        <time>2000-01-01T00:00:00.000Z</time>
      </trkpt>
      <trkpt lat="59.83356" lon="6.82719">
        <ele>407.28045654296875</ele>
        <time>2000-01-01T00:00:00.000Z</time>
      </trkpt>
      <trkpt lat="59.83345" lon="6.82725">
        <ele>406.7322998046875</ele>
        <time>2000-01-01T00:00:00.000Z</time>
      </trkpt>
      <trkpt lat="59.83333" lon="6.82735">
        <ele>406.1070251464844</ele>
        <time>2000-01-01T00:00:00.000Z</time>
      </trkpt>
      <trkpt lat="59.83331218245212" lon="6.8273579188367295">
        <ele>406.019287109375</ele>
        <time>2000-01-01T00:00:00.000Z</time>
      </trkpt>
      <trkpt lat="59.83324" lon="6.82739">
        <ele>405.7270202636719</ele>
        <time>2000-01-01T00:00:00.000Z</time>
      </trkpt>
      <trkpt lat="59.83311" lon="6.8274">
        <ele>405.2129211425781</ele>
        <time>2000-01-01T00:00:00.000Z</time>
      </trkpt>
      <trkpt lat="59.83304475496538" lon="6.827401304787168">
        <ele>404.955078125</ele>
        <time>2000-01-01T00:00:00.000Z</time>
      </trkpt>
      <trkpt lat="59.83277546156213" lon="6.827406690752312">
        <ele>403.8581848144531</ele>
        <time>2000-01-01T00:00:00.000Z</time>
      </trkpt>
      <trkpt lat="59.83261" lon="6.82741">
        <ele>403.2012023925781</ele>
        <time>2000-01-01T00:00:00.000Z</time>
      </trkpt>
      <trkpt lat="59.83250624747786" lon="6.82740169984972">
        <ele>402.7889404296875</ele>
        <time>2000-01-01T00:00:00.000Z</time>
      </trkpt>
      <trkpt lat="59.83236" lon="6.82739">
        <ele>402.2306823730469</ele>
        <time>2000-01-01T00:00:00.000Z</time>
      </trkpt>
      <trkpt lat="59.83227" lon="6.82741">
        <ele>401.8852844238281</ele>
        <time>2000-01-01T00:00:00.000Z</time>
      </trkpt>
      <trkpt lat="59.83216" lon="6.82745">
        <ele>401.45880126953125</ele>
        <time>2000-01-01T00:00:00.000Z</time>
      </trkpt>
      <trkpt lat="59.83191" lon="6.82758">
        <ele>400.47296142578125</ele>
        <time>2000-01-01T00:00:00.000Z</time>
      </trkpt>
      <trkpt lat="59.83178" lon="6.82761">
        <ele>399.8815612792969</ele>
        <time>2000-01-01T00:00:00.000Z</time>
      </trkpt>
      <trkpt lat="59.83166" lon="6.82761">
        <ele>399.3392639160156</ele>
        <time>2000-01-01T00:00:00.000Z</time>
      </trkpt>
      <trkpt lat="59.8316" lon="6.82756">
        <ele>399.0453186035156</ele>
        <time>2000-01-01T00:00:00.000Z</time>
      </trkpt>
      <trkpt lat="59.83153" lon="6.82746">
        <ele>398.6559143066406</ele>
        <time>2000-01-01T00:00:00.000Z</time>
      </trkpt>
      <trkpt lat="59.83145" lon="6.82726">
        <ele>398.075927734375</ele>
        <time>2000-01-01T00:00:00.000Z</time>
      </trkpt>
      <trkpt lat="59.83144" lon="6.82722">
        <ele>397.97454833984375</ele>
        <time>2000-01-01T00:00:00.000Z</time>
      </trkpt>
      <trkpt lat="59.83138" lon="6.82704">
        <ele>397.4844665527344</ele>
        <time>2000-01-01T00:00:00.000Z</time>
      </trkpt>
      <trkpt lat="59.83134851827243" lon="6.8268983472692915">
        <ele>397.1330261230469</ele>
        <time>2000-01-01T00:00:00.000Z</time>
      </trkpt>
      <trkpt lat="59.831239608833044" lon="6.826408241017505">
        <ele>395.8806457519531</ele>
        <time>2000-01-01T00:00:00.000Z</time>
      </trkpt>
      <trkpt lat="59.83122" lon="6.82632">
        <ele>395.6805419921875</ele>
        <time>2000-01-01T00:00:00.000Z</time>
      </trkpt>
      <trkpt lat="59.83114046503059" lon="6.825910094125175">
        <ele>394.7691650390625</ele>
        <time>2000-01-01T00:00:00.000Z</time>
      </trkpt>
      <trkpt lat="59.83109" lon="6.82565">
        <ele>394.2406921386719</ele>
        <time>2000-01-01T00:00:00.000Z</time>
      </trkpt>
      <trkpt lat="59.83104" lon="6.82543">
        <ele>393.78302001953125</ele>
        <time>2000-01-01T00:00:00.000Z</time>
      </trkpt>
      <trkpt lat="59.83094" lon="6.82512">
        <ele>393.08551025390625</ele>
        <time>2000-01-01T00:00:00.000Z</time>
      </trkpt>
      <trkpt lat="59.83089" lon="6.82507">
        <ele>392.94110107421875</ele>
        <time>2000-01-01T00:00:00.000Z</time>
      </trkpt>
      <trkpt lat="59.83085" lon="6.82504">
        <ele>392.830810546875</ele>
        <time>2000-01-01T00:00:00.000Z</time>
      </trkpt>
      <trkpt lat="59.83086" lon="6.82492">
        <ele>392.6730651855469</ele>
        <time>2000-01-01T00:00:00.000Z</time>
      </trkpt>
      <trkpt lat="59.830878150362224" lon="6.824520671919453">
        <ele>392.153076171875</ele>
        <time>2000-01-01T00:00:00.000Z</time>
      </trkpt>
      <trkpt lat="59.83089" lon="6.82426">
        <ele>391.9679870605469</ele>
        <time>2000-01-01T00:00:00.000Z</time>
      </trkpt>
      <trkpt lat="59.83094303436931" lon="6.823456888567849">
        <ele>391.3952331542969</ele>
        <time>2000-01-01T00:00:00.000Z</time>
      </trkpt>
      <trkpt lat="59.83096" lon="6.8232">
        <ele>391.33184814453125</ele>
        <time>2000-01-01T00:00:00.000Z</time>
      </trkpt>
      <trkpt lat="59.8309731181884" lon="6.822924454466777">
        <ele>391.2641296386719</ele>
        <time>2000-01-01T00:00:00.000Z</time>
      </trkpt>
      <trkpt lat="59.831" lon="6.82236">
        <ele>391.3230895996094</ele>
        <time>2000-01-01T00:00:00.000Z</time>
      </trkpt>
      <trkpt lat="59.83102" lon="6.82196">
        <ele>391.3648681640625</ele>
        <time>2000-01-01T00:00:00.000Z</time>
      </trkpt>
      <trkpt lat="59.83104" lon="6.82181">
        <ele>391.38116455078125</ele>
        <time>2000-01-01T00:00:00.000Z</time>
      </trkpt>
      <trkpt lat="59.83102" lon="6.82196">
        <ele>391.41943359375</ele>
        <time>2000-01-01T00:00:00.000Z</time>
      </trkpt>
      <trkpt lat="59.831" lon="6.82236">
        <ele>391.51861572265625</ele>
        <time>2000-01-01T00:00:00.000Z</time>
      </trkpt>
      <trkpt lat="59.83097808703788" lon="6.822820135102332">
        <ele>391.63262939453125</ele>
        <time>2000-01-01T00:00:00.000Z</time>
      </trkpt>
      <trkpt lat="59.83096" lon="6.8232">
        <ele>391.79254150390625</ele>
        <time>2000-01-01T00:00:00.000Z</time>
      </trkpt>
      <trkpt lat="59.83094988978382" lon="6.823352993494968">
        <ele>391.8572082519531</ele>
        <time>2000-01-01T00:00:00.000Z</time>
      </trkpt>
      <trkpt lat="59.83089" lon="6.82426">
        <ele>392.3143615722656</ele>
        <time>2000-01-01T00:00:00.000Z</time>
      </trkpt>
      <trkpt lat="59.830882892711074" lon="6.8244163111181955">
        <ele>392.3927917480469</ele>
        <time>2000-01-01T00:00:00.000Z</time>
      </trkpt>
      <trkpt lat="59.83086" lon="6.82492">
        <ele>392.7217712402344</ele>
        <time>2000-01-01T00:00:00.000Z</time>
      </trkpt>
      <trkpt lat="59.83085" lon="6.82504">
        <ele>392.8009033203125</ele>
        <time>2000-01-01T00:00:00.000Z</time>
      </trkpt>
      <trkpt lat="59.830818015351824" lon="6.825479785092433">
        <ele>393.0899658203125</ele>
        <time>2000-01-01T00:00:00.000Z</time>
      </trkpt>
      <trkpt lat="59.83081" lon="6.82559">
        <ele>393.1582336425781</ele>
        <time>2000-01-01T00:00:00.000Z</time>
      </trkpt>
      <trkpt lat="59.83078776796689" lon="6.826012199695626">
        <ele>393.4184875488281</ele>
        <time>2000-01-01T00:00:00.000Z</time>
      </trkpt>
      <trkpt lat="59.83073" lon="6.82711">
        <ele>393.96435546875</ele>
        <time>2000-01-01T00:00:00.000Z</time>
      </trkpt>
      <trkpt lat="59.8307" lon="6.82746">
        <ele>394.1398620605469</ele>
        <time>2000-01-01T00:00:00.000Z</time>
      </trkpt>
      <trkpt lat="59.83065" lon="6.82762">
        <ele>394.1741027832031</ele>
        <time>2000-01-01T00:00:00.000Z</time>
      </trkpt>
      <trkpt lat="59.8306" lon="6.82773">
        <ele>394.2010498046875</ele>
        <time>2000-01-01T00:00:00.000Z</time>
      </trkpt>
      <trkpt lat="59.83052" lon="6.82782">
        <ele>394.2342834472656</ele>
        <time>2000-01-01T00:00:00.000Z</time>
      </trkpt>
      <trkpt lat="59.83044589102989" lon="6.827894108788327">
        <ele>394.2642822265625</ele>
        <time>2000-01-01T00:00:00.000Z</time>
      </trkpt>
      <trkpt lat="59.83038" lon="6.82796">
        <ele>394.2685546875</ele>
        <time>2000-01-01T00:00:00.000Z</time>
      </trkpt>
      <trkpt lat="59.83024" lon="6.82811">
        <ele>394.2778015136719</ele>
        <time>2000-01-01T00:00:00.000Z</time>
      </trkpt>
      <trkpt lat="59.830207727951866" lon="6.828144169610119">
        <ele>394.2799377441406</ele>
        <time>2000-01-01T00:00:00.000Z</time>
      </trkpt>
      <trkpt lat="59.83007" lon="6.82829">
        <ele>394.2458190917969</ele>
        <time>2000-01-01T00:00:00.000Z</time>
      </trkpt>
      <trkpt lat="59.82998" lon="6.82839">
        <ele>394.2232971191406</ele>
        <time>2000-01-01T00:00:00.000Z</time>
      </trkpt>
      <trkpt lat="59.82992" lon="6.82842">
        <ele>394.20977783203125</ele>
        <time>2000-01-01T00:00:00.000Z</time>
      </trkpt>
      <trkpt lat="59.8298" lon="6.82843">
        <ele>394.1832275390625</ele>
        <time>2000-01-01T00:00:00.000Z</time>
      </trkpt>
      <trkpt lat="59.82969" lon="6.82839">
        <ele>394.09722900390625</ele>
        <time>2000-01-01T00:00:00.000Z</time>
      </trkpt>
      <trkpt lat="59.82949" lon="6.82824">
        <ele>393.9328308105469</ele>
        <time>2000-01-01T00:00:00.000Z</time>
      </trkpt>
      <trkpt lat="59.82945552595402" lon="6.828194764171503">
        <ele>393.90106201171875</ele>
        <time>2000-01-01T00:00:00.000Z</time>
      </trkpt>
      <trkpt lat="59.82923072433965" lon="6.827899703941567">
        <ele>393.6035461425781</ele>
        <time>2000-01-01T00:00:00.000Z</time>
      </trkpt>
      <trkpt lat="59.82901" lon="6.82761">
        <ele>393.2727966308594</ele>
        <time>2000-01-01T00:00:00.000Z</time>
      </trkpt>
      <trkpt lat="59.8288" lon="6.82731">
        <ele>392.86578369140625</ele>
        <time>2000-01-01T00:00:00.000Z</time>
      </trkpt>
      <trkpt lat="59.82878634820221" lon="6.827294686031275">
        <ele>392.84100341796875</ele>
        <time>2000-01-01T00:00:00.000Z</time>
      </trkpt>
      <trkpt lat="59.828551824789855" lon="6.827031287862858">
        <ele>392.41619873046875</ele>
        <time>2000-01-01T00:00:00.000Z</time>
      </trkpt>
      <trkpt lat="59.82815" lon="6.82658">
        <ele>391.6607666015625</ele>
        <time>2000-01-01T00:00:00.000Z</time>
      </trkpt>
      <trkpt lat="59.82808742850177" lon="6.826490054163463">
        <ele>391.5343933105469</ele>
        <time>2000-01-01T00:00:00.000Z</time>
      </trkpt>
      <trkpt lat="59.82799" lon="6.82635">
        <ele>391.3410339355469</ele>
        <time>2000-01-01T00:00:00.000Z</time>
      </trkpt>
      <trkpt lat="59.82786428811528" lon="6.826190451326584">
        <ele>391.1011657714844</ele>
        <time>2000-01-01T00:00:00.000Z</time>
      </trkpt>
      <trkpt lat="59.82747" lon="6.82569">
        <ele>390.461181640625</ele>
        <time>2000-01-01T00:00:00.000Z</time>
      </trkpt>
      <trkpt lat="59.827408529251294" lon="6.825619599149795">
        <ele>390.3641357421875</ele>
        <time>2000-01-01T00:00:00.000Z</time>
      </trkpt>
      <trkpt lat="59.826941749741124" lon="6.825084913426956">
        <ele>389.82171630859375</ele>
        <time>2000-01-01T00:00:00.000Z</time>
      </trkpt>
      <trkpt lat="59.82692" lon="6.82506">
        <ele>389.8023376464844</ele>
        <time>2000-01-01T00:00:00.000Z</time>
      </trkpt>
      <trkpt lat="59.826484932389604" lon="6.82451726000007">
        <ele>389.4055480957031</ele>
        <time>2000-01-01T00:00:00.000Z</time>
      </trkpt>
      <trkpt lat="59.82625680625558" lon="6.8242325063981735">
        <ele>389.2066955566406</ele>
        <time>2000-01-01T00:00:00.000Z</time>
      </trkpt>
      <trkpt lat="59.82580055214278" lon="6.82366301089455">
        <ele>388.92547607421875</ele>
        <time>2000-01-01T00:00:00.000Z</time>
      </trkpt>
      <trkpt lat="59.82557242416401" lon="6.823378268992667">
        <ele>388.8614807128906</ele>
        <time>2000-01-01T00:00:00.000Z</time>
      </trkpt>
      <trkpt lat="59.825344295570375" lon="6.82309353099063">
        <ele>388.8443908691406</ele>
        <time>2000-01-01T00:00:00.000Z</time>
      </trkpt>
      <trkpt lat="59.82511616636188" lon="6.82280879688836">
        <ele>388.94110107421875</ele>
        <time>2000-01-01T00:00:00.000Z</time>
      </trkpt>
      <trkpt lat="59.824888036538525" lon="6.82252406668578">
        <ele>389.1304626464844</ele>
        <time>2000-01-01T00:00:00.000Z</time>
      </trkpt>
      <trkpt lat="59.82465990610033" lon="6.8222393403828105">
        <ele>389.3921203613281</ele>
        <time>2000-01-01T00:00:00.000Z</time>
      </trkpt>
      <trkpt lat="59.8244317750473" lon="6.821954617979372">
        <ele>389.7301025390625</ele>
        <time>2000-01-01T00:00:00.000Z</time>
      </trkpt>
      <trkpt lat="59.82438" lon="6.82189">
        <ele>389.8414001464844</ele>
        <time>2000-01-01T00:00:00.000Z</time>
      </trkpt>
      <trkpt lat="59.824201354677996" lon="6.8216773301004725">
        <ele>390.220458984375</ele>
        <time>2000-01-01T00:00:00.000Z</time>
      </trkpt>
      <trkpt lat="59.82397026426134" lon="6.821402219390746">
        <ele>390.8182067871094</ele>
        <time>2000-01-01T00:00:00.000Z</time>
      </trkpt>
      <trkpt lat="59.82396" lon="6.82139">
        <ele>390.8432922363281</ele>
        <time>2000-01-01T00:00:00.000Z</time>
      </trkpt>
      <trkpt lat="59.82354" lon="6.82084">
        <ele>391.8970947265625</ele>
        <time>2000-01-01T00:00:00.000Z</time>
      </trkpt>
      <trkpt lat="59.82345" lon="6.82067">
        <ele>392.1717529296875</ele>
        <time>2000-01-01T00:00:00.000Z</time>
      </trkpt>
      <trkpt lat="59.82334298650958" lon="6.820409711050342">
        <ele>392.5461120605469</ele>
        <time>2000-01-01T00:00:00.000Z</time>
      </trkpt>
      <trkpt lat="59.82308" lon="6.81977">
        <ele>393.1101379394531</ele>
        <time>2000-01-01T00:00:00.000Z</time>
      </trkpt>
      <trkpt lat="59.82299617532865" lon="6.819590378310966">
        <ele>393.27740478515625</ele>
        <time>2000-01-01T00:00:00.000Z</time>
      </trkpt>
      <trkpt lat="59.82287" lon="6.81932">
        <ele>393.2921447753906</ele>
        <time>2000-01-01T00:00:00.000Z</time>
      </trkpt>
      <trkpt lat="59.82280304668045" lon="6.819219570264847">
        <ele>393.298828125</ele>
        <time>2000-01-01T00:00:00.000Z</time>
      </trkpt>
      <trkpt lat="59.82275" lon="6.81914">
        <ele>393.1960754394531</ele>
        <time>2000-01-01T00:00:00.000Z</time>
      </trkpt>
      <trkpt lat="59.82244" lon="6.81884">
        <ele>392.6628112792969</ele>
        <time>2000-01-01T00:00:00.000Z</time>
      </trkpt>
      <trkpt lat="59.82237" lon="6.81868">
        <ele>392.4978942871094</ele>
        <time>2000-01-01T00:00:00.000Z</time>
      </trkpt>
      <trkpt lat="59.82227" lon="6.81847">
        <ele>392.2729797363281</ele>
        <time>2000-01-01T00:00:00.000Z</time>
      </trkpt>
      <trkpt lat="59.82226" lon="6.81838">
        <ele>392.1320495605469</ele>
        <time>2000-01-01T00:00:00.000Z</time>
      </trkpt>
      <trkpt lat="59.82227" lon="6.81827">
        <ele>391.95623779296875</ele>
        <time>2000-01-01T00:00:00.000Z</time>
      </trkpt>
      <trkpt lat="59.82231" lon="6.81803">
        <ele>391.55853271484375</ele>
        <time>2000-01-01T00:00:00.000Z</time>
      </trkpt>
      <trkpt lat="59.82236" lon="6.81779">
        <ele>391.1499328613281</ele>
        <time>2000-01-01T00:00:00.000Z</time>
      </trkpt>
      <trkpt lat="59.82237049644105" lon="6.817685034499003">
        <ele>390.9815979003906</ele>
        <time>2000-01-01T00:00:00.000Z</time>
      </trkpt>
      <trkpt lat="59.82238" lon="6.81759">
        <ele>390.7884521484375</ele>
        <time>2000-01-01T00:00:00.000Z</time>
      </trkpt>
      <trkpt lat="59.8224" lon="6.81734">
        <ele>390.2838439941406</ele>
        <time>2000-01-01T00:00:00.000Z</time>
      </trkpt>
      <trkpt lat="59.8224" lon="6.81716">
        <ele>389.9250183105469</ele>
        <time>2000-01-01T00:00:00.000Z</time>
      </trkpt>
      <trkpt lat="59.822349665965746" lon="6.8166279053753565">
        <ele>388.72918701171875</ele>
        <time>2000-01-01T00:00:00.000Z</time>
      </trkpt>
      <trkpt lat="59.82233" lon="6.81642">
        <ele>388.3298645019531</ele>
        <time>2000-01-01T00:00:00.000Z</time>
      </trkpt>
      <trkpt lat="59.82231" lon="6.81586">
        <ele>387.2701721191406</ele>
        <time>2000-01-01T00:00:00.000Z</time>
      </trkpt>
      <trkpt lat="59.82232" lon="6.81579">
        <ele>387.1328125</ele>
        <time>2000-01-01T00:00:00.000Z</time>
      </trkpt>
      <trkpt lat="59.82234" lon="6.81575">
        <ele>387.0263366699219</ele>
        <time>2000-01-01T00:00:00.000Z</time>
      </trkpt>
      <trkpt lat="59.8224" lon="6.81573">
        <ele>386.7978820800781</ele>
        <time>2000-01-01T00:00:00.000Z</time>
      </trkpt>
      <trkpt lat="59.8225" lon="6.81575">
        <ele>386.48223876953125</ele>
        <time>2000-01-01T00:00:00.000Z</time>
      </trkpt>
      <trkpt lat="59.82283" lon="6.81606">
        <ele>385.33624267578125</ele>
        <time>2000-01-01T00:00:00.000Z</time>
      </trkpt>
      <trkpt lat="59.82299" lon="6.81609">
        <ele>384.9649963378906</ele>
        <time>2000-01-01T00:00:00.000Z</time>
      </trkpt>
      <trkpt lat="59.82307" lon="6.81608">
        <ele>384.7799377441406</ele>
        <time>2000-01-01T00:00:00.000Z</time>
      </trkpt>
      <trkpt lat="59.82318" lon="6.81605">
        <ele>384.5235900878906</ele>
        <time>2000-01-01T00:00:00.000Z</time>
      </trkpt>
      <trkpt lat="59.823457086584085" lon="6.8159246510016285">
        <ele>384.2335510253906</ele>
        <time>2000-01-01T00:00:00.000Z</time>
      </trkpt>
      <trkpt lat="59.8236" lon="6.81586">
        <ele>384.0941162109375</ele>
        <time>2000-01-01T00:00:00.000Z</time>
      </trkpt>
      <trkpt lat="59.823717926046264" lon="6.8157922425554505">
        <ele>383.9773254394531</ele>
        <time>2000-01-01T00:00:00.000Z</time>
      </trkpt>
      <trkpt lat="59.82423539779061" lon="6.8154949823754905">
        <ele>383.9169921875</ele>
        <time>2000-01-01T00:00:00.000Z</time>
      </trkpt>
      <trkpt lat="59.82449413196181" lon="6.815346349655275">
        <ele>383.97967529296875</ele>
        <time>2000-01-01T00:00:00.000Z</time>
      </trkpt>
      <trkpt lat="59.82454" lon="6.81532">
        <ele>383.9952392578125</ele>
        <time>2000-01-01T00:00:00.000Z</time>
      </trkpt>
      <trkpt lat="59.82495" lon="6.81512">
        <ele>384.1328430175781</ele>
        <time>2000-01-01T00:00:00.000Z</time>
      </trkpt>
      <trkpt lat="59.82501757684752" lon="6.815095103093704">
        <ele>384.1552429199219</ele>
        <time>2000-01-01T00:00:00.000Z</time>
      </trkpt>
      <trkpt lat="59.82514" lon="6.81505">
        <ele>384.1493835449219</ele>
        <time>2000-01-01T00:00:00.000Z</time>
      </trkpt>
      <trkpt lat="59.82542" lon="6.81502">
        <ele>384.1361999511719</ele>
        <time>2000-01-01T00:00:00.000Z</time>
      </trkpt>
      <trkpt lat="59.82557" lon="6.81508">
        <ele>384.1309509277344</ele>
        <time>2000-01-01T00:00:00.000Z</time>
      </trkpt>
      <trkpt lat="59.82578" lon="6.81524">
        <ele>384.123291015625</ele>
        <time>2000-01-01T00:00:00.000Z</time>
      </trkpt>
      <trkpt lat="59.825802862209784" lon="6.815260784083237">
        <ele>384.1224365234375</ele>
        <time>2000-01-01T00:00:00.000Z</time>
      </trkpt>
      <trkpt lat="59.82589" lon="6.81534">
        <ele>384.12152099609375</ele>
        <time>2000-01-01T00:00:00.000Z</time>
      </trkpt>
      <trkpt lat="59.826043313326664" lon="6.815501602583716">
        <ele>384.1199035644531</ele>
        <time>2000-01-01T00:00:00.000Z</time>
      </trkpt>
      <trkpt lat="59.82626" lon="6.81573">
        <ele>384.11578369140625</ele>
        <time>2000-01-01T00:00:00.000Z</time>
      </trkpt>
      <trkpt lat="59.82652135192374" lon="6.815995259533963">
        <ele>384.1108703613281</ele>
        <time>2000-01-01T00:00:00.000Z</time>
      </trkpt>
      <trkpt lat="59.82676125029249" lon="6.8162387330688485">
        <ele>384.1087341308594</ele>
        <time>2000-01-01T00:00:00.000Z</time>
      </trkpt>
      <trkpt lat="59.82693" lon="6.81641">
        <ele>384.0942687988281</ele>
        <time>2000-01-01T00:00:00.000Z</time>
      </trkpt>
      <trkpt lat="59.82715" lon="6.8166">
        <ele>384.075927734375</ele>
        <time>2000-01-01T00:00:00.000Z</time>
      </trkpt>
      <trkpt lat="59.827249309671515" lon="6.816691033885839">
        <ele>384.06756591796875</ele>
        <time>2000-01-01T00:00:00.000Z</time>
      </trkpt>
      <trkpt lat="59.82727" lon="6.81671">
        <ele>384.0611572265625</ele>
        <time>2000-01-01T00:00:00.000Z</time>
      </trkpt>
      <trkpt lat="59.8275077513887" lon="6.816839683325389">
        <ele>383.99169921875</ele>
        <time>2000-01-01T00:00:00.000Z</time>
      </trkpt>
      <trkpt lat="59.82771" lon="6.81695">
        <ele>383.91326904296875</ele>
        <time>2000-01-01T00:00:00.000Z</time>
      </trkpt>
      <trkpt lat="59.82787" lon="6.81703">
        <ele>383.8515930175781</ele>
        <time>2000-01-01T00:00:00.000Z</time>
      </trkpt>
      <trkpt lat="59.82785" lon="6.8169">
        <ele>383.8168029785156</ele>
        <time>2000-01-01T00:00:00.000Z</time>
      </trkpt>
      <trkpt lat="59.82785" lon="6.81679">
        <ele>383.7884521484375</ele>
        <time>2000-01-01T00:00:00.000Z</time>
      </trkpt>
      <trkpt lat="59.82785" lon="6.81657">
        <ele>383.7317810058594</ele>
        <time>2000-01-01T00:00:00.000Z</time>
      </trkpt>
      <trkpt lat="59.82787" lon="6.8162">
        <ele>383.6358947753906</ele>
        <time>2000-01-01T00:00:00.000Z</time>
      </trkpt>
      <trkpt lat="59.82786842041043" lon="6.816176308173617">
        <ele>383.6297302246094</ele>
        <time>2000-01-01T00:00:00.000Z</time>
      </trkpt>
      <trkpt lat="59.82786" lon="6.81605">
        <ele>383.5789489746094</ele>
        <time>2000-01-01T00:00:00.000Z</time>
      </trkpt>
      <trkpt lat="59.82785" lon="6.81596">
        <ele>383.542236328125</ele>
        <time>2000-01-01T00:00:00.000Z</time>
      </trkpt>
      <trkpt lat="59.82782" lon="6.81582">
        <ele>383.4815673828125</ele>
        <time>2000-01-01T00:00:00.000Z</time>
      </trkpt>
      <trkpt lat="59.82779" lon="6.81575">
        <ele>383.4449157714844</ele>
        <time>2000-01-01T00:00:00.000Z</time>
      </trkpt>
      <trkpt lat="59.82776446098375" lon="6.815698922137528">
        <ele>383.41619873046875</ele>
        <time>2000-01-01T00:00:00.000Z</time>
      </trkpt>
      <trkpt lat="59.82773" lon="6.81563">
        <ele>383.36895751953125</ele>
        <time>2000-01-01T00:00:00.000Z</time>
      </trkpt>
      <trkpt lat="59.82769" lon="6.81551">
        <ele>383.2989501953125</ele>
        <time>2000-01-01T00:00:00.000Z</time>
      </trkpt>
      <trkpt lat="59.82766" lon="6.81537">
        <ele>383.2249755859375</ele>
        <time>2000-01-01T00:00:00.000Z</time>
      </trkpt>
      <trkpt lat="59.82765" lon="6.81509">
        <ele>383.08856201171875</ele>
        <time>2000-01-01T00:00:00.000Z</time>
      </trkpt>
      <trkpt lat="59.827624289139195" lon="6.814695768819922">
        <ele>382.89532470703125</ele>
        <time>2000-01-01T00:00:00.000Z</time>
      </trkpt>
      <trkpt lat="59.82762" lon="6.81463">
        <ele>382.85894775390625</ele>
        <time>2000-01-01T00:00:00.000Z</time>
      </trkpt>
      <trkpt lat="59.82758" lon="6.81423">
        <ele>382.6353454589844</ele>
        <time>2000-01-01T00:00:00.000Z</time>
      </trkpt>
      <trkpt lat="59.827571017558185" lon="6.814170981862328">
        <ele>382.6015319824219</ele>
        <time>2000-01-01T00:00:00.000Z</time>
      </trkpt>
      <trkpt lat="59.82751" lon="6.81377">
        <ele>382.33489990234375</ele>
        <time>2000-01-01T00:00:00.000Z</time>
      </trkpt>
      <trkpt lat="59.82747" lon="6.81353">
        <ele>382.1739807128906</ele>
        <time>2000-01-01T00:00:00.000Z</time>
      </trkpt>
      <trkpt lat="59.827390222339055" lon="6.813163023713448">
        <ele>381.91949462890625</ele>
        <time>2000-01-01T00:00:00.000Z</time>
      </trkpt>
      <trkpt lat="59.82737" lon="6.81307">
        <ele>381.8435363769531</ele>
        <time>2000-01-01T00:00:00.000Z</time>
      </trkpt>
      <trkpt lat="59.82734" lon="6.81288">
        <ele>381.6942443847656</ele>
        <time>2000-01-01T00:00:00.000Z</time>
      </trkpt>
      <trkpt lat="59.827307661229725" lon="6.812653659531334">
        <ele>381.5178527832031</ele>
        <time>2000-01-01T00:00:00.000Z</time>
      </trkpt>
      <trkpt lat="59.82721" lon="6.81197">
        <ele>380.9400634765625</ele>
        <time>2000-01-01T00:00:00.000Z</time>
      </trkpt>
      <trkpt lat="59.82715" lon="6.81179">
        <ele>380.76446533203125</ele>
        <time>2000-01-01T00:00:00.000Z</time>
      </trkpt>
      <trkpt lat="59.82712522420001" lon="6.8116537336687495">
        <ele>380.64666748046875</ele>
        <time>2000-01-01T00:00:00.000Z</time>
      </trkpt>
      <trkpt lat="59.82711" lon="6.81157">
        <ele>380.5699157714844</ele>
        <time>2000-01-01T00:00:00.000Z</time>
      </trkpt>
      <trkpt lat="59.8271" lon="6.8114">
        <ele>380.42236328125</ele>
        <time>2000-01-01T00:00:00.000Z</time>
      </trkpt>
      <trkpt lat="59.82708" lon="6.81101">
        <ele>380.0843811035156</ele>
        <time>2000-01-01T00:00:00.000Z</time>
      </trkpt>
      <trkpt lat="59.82707" lon="6.81077">
        <ele>379.87677001953125</ele>
        <time>2000-01-01T00:00:00.000Z</time>
      </trkpt>
      <trkpt lat="59.8271" lon="6.81051">
        <ele>379.6974792480469</ele>
        <time>2000-01-01T00:00:00.000Z</time>
      </trkpt>
      <trkpt lat="59.82713" lon="6.81031">
        <ele>379.5576477050781</ele>
        <time>2000-01-01T00:00:00.000Z</time>
      </trkpt>
      <trkpt lat="59.8272" lon="6.8101">
        <ele>379.3924255371094</ele>
        <time>2000-01-01T00:00:00.000Z</time>
      </trkpt>
      <trkpt lat="59.82736562986985" lon="6.8096942062828125">
        <ele>379.18701171875</ele>
        <time>2000-01-01T00:00:00.000Z</time>
      </trkpt>
      <trkpt lat="59.8274" lon="6.80961">
        <ele>379.17388916015625</ele>
        <time>2000-01-01T00:00:00.000Z</time>
      </trkpt>
      <trkpt lat="59.82755" lon="6.80915">
        <ele>379.10748291015625</ele>
        <time>2000-01-01T00:00:00.000Z</time>
      </trkpt>
      <trkpt lat="59.82756" lon="6.80912">
        <ele>379.1031188964844</ele>
        <time>2000-01-01T00:00:00.000Z</time>
      </trkpt>
      <trkpt lat="59.82766" lon="6.80882">
        <ele>379.0595397949219</ele>
        <time>2000-01-01T00:00:00.000Z</time>
      </trkpt>
      <trkpt lat="59.82766439512777" lon="6.808803297370075">
        <ele>379.0572509765625</ele>
        <time>2000-01-01T00:00:00.000Z</time>
      </trkpt>
      <trkpt lat="59.82771" lon="6.80863">
        <ele>379.1726989746094</ele>
        <time>2000-01-01T00:00:00.000Z</time>
      </trkpt>
      <trkpt lat="59.82772" lon="6.80844">
        <ele>379.28546142578125</ele>
        <time>2000-01-01T00:00:00.000Z</time>
      </trkpt>
      <trkpt lat="59.82772" lon="6.80823">
        <ele>379.409423828125</ele>
        <time>2000-01-01T00:00:00.000Z</time>
      </trkpt>
      <trkpt lat="59.82777" lon="6.80817">
        <ele>379.4779968261719</ele>
        <time>2000-01-01T00:00:00.000Z</time>
      </trkpt>
      <trkpt lat="59.82782" lon="6.80811">
        <ele>379.54656982421875</ele>
        <time>2000-01-01T00:00:00.000Z</time>
      </trkpt>
      <trkpt lat="59.82787" lon="6.80797">
        <ele>379.64794921875</ele>
        <time>2000-01-01T00:00:00.000Z</time>
      </trkpt>
      <trkpt lat="59.82788699497225" lon="6.80790768497856">
        <ele>379.6897888183594</ele>
        <time>2000-01-01T00:00:00.000Z</time>
      </trkpt>
      <trkpt lat="59.8279" lon="6.80786">
        <ele>379.74127197265625</ele>
        <time>2000-01-01T00:00:00.000Z</time>
      </trkpt>
      <trkpt lat="59.82793" lon="6.80766">
        <ele>379.9393310546875</ele>
        <time>2000-01-01T00:00:00.000Z</time>
      </trkpt>
      <trkpt lat="59.82796" lon="6.80751">
        <ele>380.0924987792969</ele>
        <time>2000-01-01T00:00:00.000Z</time>
      </trkpt>
      <trkpt lat="59.82797" lon="6.80748">
        <ele>380.1266784667969</ele>
        <time>2000-01-01T00:00:00.000Z</time>
      </trkpt>
      <trkpt lat="59.82801" lon="6.80741">
        <ele>380.22723388671875</ele>
        <time>2000-01-01T00:00:00.000Z</time>
      </trkpt>
      <trkpt lat="59.82806" lon="6.80734">
        <ele>380.34271240234375</ele>
        <time>2000-01-01T00:00:00.000Z</time>
      </trkpt>
      <trkpt lat="59.82814" lon="6.80728">
        <ele>380.5600280761719</ele>
        <time>2000-01-01T00:00:00.000Z</time>
      </trkpt>
      <trkpt lat="59.82827" lon="6.80732">
        <ele>380.8944091796875</ele>
        <time>2000-01-01T00:00:00.000Z</time>
      </trkpt>
      <trkpt lat="59.82835" lon="6.8073">
        <ele>381.0993347167969</ele>
        <time>2000-01-01T00:00:00.000Z</time>
      </trkpt>
      <trkpt lat="59.82838" lon="6.80743">
        <ele>381.2820739746094</ele>
        <time>2000-01-01T00:00:00.000Z</time>
      </trkpt>
      <trkpt lat="59.8285" lon="6.8078">
        <ele>381.8699645996094</ele>
        <time>2000-01-01T00:00:00.000Z</time>
      </trkpt>
      <trkpt lat="59.82855" lon="6.80792">
        <ele>382.07806396484375</ele>
        <time>2000-01-01T00:00:00.000Z</time>
      </trkpt>
      <trkpt lat="59.82859724133487" lon="6.808000489833437">
        <ele>382.2432861328125</ele>
        <time>2000-01-01T00:00:00.000Z</time>
      </trkpt>
      <trkpt lat="59.82882" lon="6.80838">
        <ele>383.0110168457031</ele>
        <time>2000-01-01T00:00:00.000Z</time>
      </trkpt>
      <trkpt lat="59.82895" lon="6.80864">
        <ele>383.4935607910156</ele>
        <time>2000-01-01T00:00:00.000Z</time>
      </trkpt>
      <trkpt lat="59.82899159229381" lon="6.808728860933382">
        <ele>383.6533203125</ele>
        <time>2000-01-01T00:00:00.000Z</time>
      </trkpt>
      <trkpt lat="59.82917" lon="6.80911">
        <ele>384.312744140625</ele>
        <time>2000-01-01T00:00:00.000Z</time>
      </trkpt>
      <trkpt lat="59.82939" lon="6.80964">
        <ele>385.1803283691406</ele>
        <time>2000-01-01T00:00:00.000Z</time>
      </trkpt>
      <trkpt lat="59.82948" lon="6.80976">
        <ele>385.4109191894531</ele>
        <time>2000-01-01T00:00:00.000Z</time>
      </trkpt>
      <trkpt lat="59.82958" lon="6.80987">
        <ele>385.654052734375</ele>
        <time>2000-01-01T00:00:00.000Z</time>
      </trkpt>
      <trkpt lat="59.82967" lon="6.80987">
        <ele>385.8455505371094</ele>
        <time>2000-01-01T00:00:00.000Z</time>
      </trkpt>
      <trkpt lat="59.82982" lon="6.80981">
        <ele>386.1711120605469</ele>
        <time>2000-01-01T00:00:00.000Z</time>
      </trkpt>
      <trkpt lat="59.82987" lon="6.8098">
        <ele>386.2677307128906</ele>
        <time>2000-01-01T00:00:00.000Z</time>
      </trkpt>
      <trkpt lat="59.82994" lon="6.80982">
        <ele>386.40228271484375</ele>
        <time>2000-01-01T00:00:00.000Z</time>
      </trkpt>
      <trkpt lat="59.83001" lon="6.80991">
        <ele>386.56085205078125</ele>
        <time>2000-01-01T00:00:00.000Z</time>
      </trkpt>
      <trkpt lat="59.83007" lon="6.81002">
        <ele>386.7157287597656</ele>
        <time>2000-01-01T00:00:00.000Z</time>
      </trkpt>
      <trkpt lat="59.83008" lon="6.81007">
        <ele>386.7509460449219</ele>
        <time>2000-01-01T00:00:00.000Z</time>
      </trkpt>
      <trkpt lat="59.83012" lon="6.81032">
        <ele>386.92266845703125</ele>
        <time>2000-01-01T00:00:00.000Z</time>
      </trkpt>
      <trkpt lat="59.83019" lon="6.81058">
        <ele>387.1157531738281</ele>
        <time>2000-01-01T00:00:00.000Z</time>
      </trkpt>
      <trkpt lat="59.83026" lon="6.81076">
        <ele>387.2643127441406</ele>
        <time>2000-01-01T00:00:00.000Z</time>
      </trkpt>
      <trkpt lat="59.83016" lon="6.81073">
        <ele>387.3113708496094</ele>
        <time>2000-01-01T00:00:00.000Z</time>
      </trkpt>
      <trkpt lat="59.83008" lon="6.81072">
        <ele>387.3486633300781</ele>
        <time>2000-01-01T00:00:00.000Z</time>
      </trkpt>
      <trkpt lat="59.83001" lon="6.81076">
        <ele>387.382568359375</ele>
        <time>2000-01-01T00:00:00.000Z</time>
      </trkpt>
      <trkpt lat="59.82993" lon="6.81085">
        <ele>387.4253234863281</ele>
        <time>2000-01-01T00:00:00.000Z</time>
      </trkpt>
      <trkpt lat="59.82986" lon="6.81094">
        <ele>387.4640808105469</ele>
        <time>2000-01-01T00:00:00.000Z</time>
      </trkpt>
      <trkpt lat="59.82978" lon="6.81102">
        <ele>387.505126953125</ele>
        <time>2000-01-01T00:00:00.000Z</time>
      </trkpt>
      <trkpt lat="59.82975" lon="6.81128">
        <ele>387.4520568847656</ele>
        <time>2000-01-01T00:00:00.000Z</time>
      </trkpt>
      <trkpt lat="59.82967" lon="6.81161">
        <ele>387.37921142578125</ele>
        <time>2000-01-01T00:00:00.000Z</time>
      </trkpt>
      <trkpt lat="59.829631196088535" lon="6.811739346084911">
        <ele>387.3492736816406</ele>
        <time>2000-01-01T00:00:00.000Z</time>
      </trkpt>
      <trkpt lat="59.82961" lon="6.81181">
        <ele>387.3343505859375</ele>
        <time>2000-01-01T00:00:00.000Z</time>
      </trkpt>
      <trkpt lat="59.82956" lon="6.81187">
        <ele>387.31329345703125</ele>
        <time>2000-01-01T00:00:00.000Z</time>
      </trkpt>
      <trkpt lat="59.82953" lon="6.81199">
        <ele>387.28900146484375</ele>
        <time>2000-01-01T00:00:00.000Z</time>
      </trkpt>
      <trkpt lat="59.82952" lon="6.81222">
        <ele>387.24822998046875</ele>
        <time>2000-01-01T00:00:00.000Z</time>
      </trkpt>
      <trkpt lat="59.82953" lon="6.81188">
        <ele>387.5514831542969</ele>
        <time>2000-01-01T00:00:00.000Z</time>
      </trkpt>
      <trkpt lat="59.82956" lon="6.81187">
        <ele>387.6053466796875</ele>
        <time>2000-01-01T00:00:00.000Z</time>
      </trkpt>
      <trkpt lat="59.82961" lon="6.81181">
        <ele>387.70880126953125</ele>
        <time>2000-01-01T00:00:00.000Z</time>
      </trkpt>
      <trkpt lat="59.82967" lon="6.81161">
        <ele>387.91619873046875</ele>
        <time>2000-01-01T00:00:00.000Z</time>
      </trkpt>
      <trkpt lat="59.82975" lon="6.81128">
        <ele>388.2424011230469</ele>
        <time>2000-01-01T00:00:00.000Z</time>
      </trkpt>
      <trkpt lat="59.82978" lon="6.81102">
        <ele>388.4806213378906</ele>
        <time>2000-01-01T00:00:00.000Z</time>
      </trkpt>
      <trkpt lat="59.82986" lon="6.81094">
        <ele>388.8809509277344</ele>
        <time>2000-01-01T00:00:00.000Z</time>
      </trkpt>
      <trkpt lat="59.82993" lon="6.81085">
        <ele>389.2535705566406</ele>
        <time>2000-01-01T00:00:00.000Z</time>
      </trkpt>
      <trkpt lat="59.83001" lon="6.81076">
        <ele>389.6644592285156</ele>
        <time>2000-01-01T00:00:00.000Z</time>
      </trkpt>
      <trkpt lat="59.83008" lon="6.81072">
        <ele>389.9901123046875</ele>
        <time>2000-01-01T00:00:00.000Z</time>
      </trkpt>
      <trkpt lat="59.83016" lon="6.81073">
        <ele>390.3502197265625</ele>
        <time>2000-01-01T00:00:00.000Z</time>
      </trkpt>
      <trkpt lat="59.83026" lon="6.81076">
        <ele>391.26812744140625</ele>
        <time>2000-01-01T00:00:00.000Z</time>
      </trkpt>
      <trkpt lat="59.83033" lon="6.81082">
        <ele>391.7838134765625</ele>
        <time>2000-01-01T00:00:00.000Z</time>
      </trkpt>
      <trkpt lat="59.83047" lon="6.81101">
        <ele>392.9304504394531</ele>
        <time>2000-01-01T00:00:00.000Z</time>
      </trkpt>
      <trkpt lat="59.83054" lon="6.8111">
        <ele>393.4943542480469</ele>
        <time>2000-01-01T00:00:00.000Z</time>
      </trkpt>
      <trkpt lat="59.83058687235086" lon="6.811170841202795">
        <ele>393.89263916015625</ele>
        <time>2000-01-01T00:00:00.000Z</time>
      </trkpt>
      <trkpt lat="59.83099" lon="6.81178">
        <ele>398.1310729980469</ele>
        <time>2000-01-01T00:00:00.000Z</time>
      </trkpt>
      <trkpt lat="59.83101577126845" lon="6.811819138535252">
        <ele>398.40252685546875</ele>
        <time>2000-01-01T00:00:00.000Z</time>
      </trkpt>
      <trkpt lat="59.83122986149499" lon="6.812144234283534">
        <ele>400.04644775390625</ele>
        <time>2000-01-01T00:00:00.000Z</time>
      </trkpt>
      <trkpt lat="59.83126" lon="6.81219">
        <ele>400.25238037109375</ele>
        <time>2000-01-01T00:00:00.000Z</time>
      </trkpt>
      <trkpt lat="59.83144924690167" lon="6.812454945690757">
        <ele>401.50933837890625</ele>
        <time>2000-01-01T00:00:00.000Z</time>
      </trkpt>
      <trkpt lat="59.83146" lon="6.81247">
        <ele>401.5557861328125</ele>
        <time>2000-01-01T00:00:00.000Z</time>
      </trkpt>
      <trkpt lat="59.83157" lon="6.81261">
        <ele>402.0171813964844</ele>
        <time>2000-01-01T00:00:00.000Z</time>
      </trkpt>
      <trkpt lat="59.83168" lon="6.81277">
        <ele>402.4986267089844</ele>
        <time>2000-01-01T00:00:00.000Z</time>
      </trkpt>
      <trkpt lat="59.83159" lon="6.81298">
        <ele>402.572998046875</ele>
        <time>2000-01-01T00:00:00.000Z</time>
      </trkpt>
      <trkpt lat="59.83159" lon="6.81307">
        <ele>402.59716796875</ele>
        <time>2000-01-01T00:00:00.000Z</time>
      </trkpt>
      <trkpt lat="59.83156" lon="6.81318">
        <ele>402.6307373046875</ele>
        <time>2000-01-01T00:00:00.000Z</time>
      </trkpt>
      <trkpt lat="59.83157" lon="6.8133">
        <ele>402.6633605957031</ele>
        <time>2000-01-01T00:00:00.000Z</time>
      </trkpt>
      <trkpt lat="59.83156" lon="6.81362">
        <ele>402.7467956542969</ele>
        <time>2000-01-01T00:00:00.000Z</time>
      </trkpt>
      <trkpt lat="59.83157" lon="6.81383">
        <ele>402.4829406738281</ele>
        <time>2000-01-01T00:00:00.000Z</time>
      </trkpt>
      <trkpt lat="59.83169" lon="6.81435">
        <ele>401.7672119140625</ele>
        <time>2000-01-01T00:00:00.000Z</time>
      </trkpt>
      <trkpt lat="59.83171" lon="6.81444">
        <ele>401.64349365234375</ele>
        <time>2000-01-01T00:00:00.000Z</time>
      </trkpt>
      <trkpt lat="59.8317" lon="6.81454">
        <ele>401.4698791503906</ele>
        <time>2000-01-01T00:00:00.000Z</time>
      </trkpt>
      <trkpt lat="59.83164" lon="6.81471">
        <ele>401.1161804199219</ele>
        <time>2000-01-01T00:00:00.000Z</time>
      </trkpt>
      <trkpt lat="59.83157" lon="6.81482">
        <ele>400.8139953613281</ele>
        <time>2000-01-01T00:00:00.000Z</time>
      </trkpt>
      <trkpt lat="59.83122" lon="6.81508">
        <ele>399.549072265625</ele>
        <time>2000-01-01T00:00:00.000Z</time>
      </trkpt>
      <trkpt lat="59.83127" lon="6.81543">
        <ele>399.23779296875</ele>
        <time>2000-01-01T00:00:00.000Z</time>
      </trkpt>
      <trkpt lat="59.831326308833255" lon="6.815730328315008">
        <ele>398.9635925292969</ele>
        <time>2000-01-01T00:00:00.000Z</time>
      </trkpt>
      <trkpt lat="59.83142" lon="6.81623">
        <ele>398.560791015625</ele>
        <time>2000-01-01T00:00:00.000Z</time>
      </trkpt>
      <trkpt lat="59.8315" lon="6.81662">
        <ele>398.242919921875</ele>
        <time>2000-01-01T00:00:00.000Z</time>
      </trkpt>
      <trkpt lat="59.83165" lon="6.8165">
        <ele>398.1810607910156</ele>
        <time>2000-01-01T00:00:00.000Z</time>
      </trkpt>
      <trkpt lat="59.8317" lon="6.81669">
        <ele>398.2354431152344</ele>
        <time>2000-01-01T00:00:00.000Z</time>
      </trkpt>
      <trkpt lat="59.83178" lon="6.81706">
        <ele>398.3376159667969</ele>
        <time>2000-01-01T00:00:00.000Z</time>
      </trkpt>
      <trkpt lat="59.83183" lon="6.81719">
        <ele>398.379150390625</ele>
        <time>2000-01-01T00:00:00.000Z</time>
      </trkpt>
      <trkpt lat="59.831859543001094" lon="6.81725320340349">
        <ele>398.4010314941406</ele>
        <time>2000-01-01T00:00:00.000Z</time>
      </trkpt>
      <trkpt lat="59.83222651481515" lon="6.818037728680298">
        <ele>398.6849365234375</ele>
        <time>2000-01-01T00:00:00.000Z</time>
      </trkpt>
      <trkpt lat="59.832408" lon="6.818433">
        <ele>394.99</ele>
        <time>2000-01-01T00:00:01.000Z</time>
      </trkpt>
      <trkpt lat="59.832406" lon="6.818429">
        <ele>395</ele>
        <time>2000-01-01T00:00:02.000Z</time>
      </trkpt>
      <trkpt lat="59.832484" lon="6.818263">
        <ele>395.31</ele>
        <time>2000-01-01T00:00:03.000Z</time>
      </trkpt>
      <trkpt lat="59.832771" lon="6.817578">
        <ele>399.3</ele>
        <time>2000-01-01T00:00:04.000Z</time>
      </trkpt>
      <trkpt lat="59.832879" lon="6.817301">
        <ele>400</ele>
        <time>2000-01-01T00:00:05.000Z</time>
      </trkpt>
      <trkpt lat="59.832922" lon="6.817157">
        <ele>401.12</ele>
        <time>2000-01-01T00:00:06.000Z</time>
      </trkpt>
      <trkpt lat="59.832944" lon="6.817032">
        <ele>401.81</ele>
        <time>2000-01-01T00:00:07.000Z</time>
      </trkpt>
      <trkpt lat="59.832957" lon="6.816884">
        <ele>402.41</ele>
        <time>2000-01-01T00:00:07.488Z</time>
      </trkpt>
      <trkpt lat="59.833012" lon="6.816172">
        <ele>405.47</ele>
        <time>2000-01-01T00:00:09.829Z</time>
      </trkpt>
      <trkpt lat="59.833061" lon="6.815666">
        <ele>408.41</ele>
        <time>2000-01-01T00:00:11.504Z</time>
      </trkpt>
      <trkpt lat="59.833088" lon="6.815463">
        <ele>409.77</ele>
        <time>2000-01-01T00:00:12.186Z</time>
      </trkpt>
      <trkpt lat="59.833131" lon="6.815256">
        <ele>410.96</ele>
        <time>2000-01-01T00:00:12.914Z</time>
      </trkpt>
      <trkpt lat="59.833178" lon="6.815145">
        <ele>411.49</ele>
        <time>2000-01-01T00:00:13.385Z</time>
      </trkpt>
      <trkpt lat="59.833233" lon="6.815076">
        <ele>412.81</ele>
        <time>2000-01-01T00:00:13.805Z</time>
      </trkpt>
      <trkpt lat="59.833328" lon="6.815">
        <ele>412.8</ele>
        <time>2000-01-01T00:00:14.467Z</time>
      </trkpt>
      <trkpt lat="59.833425" lon="6.81495">
        <ele>414.18</ele>
        <time>2000-01-01T00:00:15.093Z</time>
      </trkpt>
      <trkpt lat="59.833432" lon="6.814946">
        <ele>414.28</ele>
        <time>2000-01-01T00:00:15.138Z</time>
      </trkpt>
      <trkpt lat="59.833458" lon="6.815189">
        <ele>414.92</ele>
        <time>2000-01-01T00:00:15.918Z</time>
      </trkpt>
      <trkpt lat="59.833495" lon="6.815422">
        <ele>415.19</ele>
        <time>2000-01-01T00:00:16.686Z</time>
      </trkpt>
      <trkpt lat="59.833534" lon="6.815605">
        <ele>416</ele>
        <time>2000-01-01T00:00:17.310Z</time>
      </trkpt>
      <trkpt lat="59.833578" lon="6.815751">
        <ele>415.99</ele>
        <time>2000-01-01T00:00:17.845Z</time>
      </trkpt>
      <trkpt lat="59.833645" lon="6.815932">
        <ele>416.55</ele>
        <time>2000-01-01T00:00:18.551Z</time>
      </trkpt>
      <trkpt lat="59.833919" lon="6.816546">
        <ele>418.73</ele>
        <time>2000-01-01T00:00:21.132Z</time>
      </trkpt>
      <trkpt lat="59.834269" lon="6.817301">
        <ele>420.95</ele>
        <time>2000-01-01T00:00:24.360Z</time>
      </trkpt>
      <trkpt lat="59.834361" lon="6.817535">
        <ele>421.6</ele>
        <time>2000-01-01T00:00:25.293Z</time>
      </trkpt>
      <trkpt lat="59.834798" lon="6.818523">
        <ele>425.9</ele>
        <time>2000-01-01T00:00:29.430Z</time>
      </trkpt>
      <trkpt lat="59.834885" lon="6.818753">
        <ele>426.65</ele>
        <time>2000-01-01T00:00:30.334Z</time>
      </trkpt>
      <trkpt lat="59.835023" lon="6.819212">
        <ele>428.24</ele>
        <time>2000-01-01T00:00:32.015Z</time>
      </trkpt>
      <trkpt lat="59.835287" lon="6.820483">
        <ele>430.92</ele>
        <time>2000-01-01T00:00:36.338Z</time>
      </trkpt>
      <trkpt lat="59.835465" lon="6.821097">
        <ele>434.13</ele>
        <time>2000-01-01T00:00:38.566Z</time>
      </trkpt>
      <trkpt lat="59.835517" lon="6.821328">
        <ele>435.2</ele>
        <time>2000-01-01T00:00:39.361Z</time>
      </trkpt>
      <trkpt lat="59.835517" lon="6.82133">
        <ele>435.21</ele>
        <time>2000-01-01T00:00:39.367Z</time>
      </trkpt>
      <trkpt lat="59.835591" lon="6.821311">
        <ele>435.54</ele>
        <time>2000-01-01T00:00:39.833Z</time>
      </trkpt>
      <trkpt lat="59.835645" lon="6.821425">
        <ele>436.11</ele>
        <time>2000-01-01T00:00:40.325Z</time>
      </trkpt>
      <trkpt lat="59.835877" lon="6.821509">
        <ele>442.58</ele>
        <time>2000-01-01T00:00:41.798Z</time>
      </trkpt>
      <trkpt lat="59.836036" lon="6.821593">
        <ele>447.96</ele>
        <time>2000-01-01T00:00:42.826Z</time>
      </trkpt>
      <trkpt lat="59.836109" lon="6.821628">
        <ele>450.44</ele>
        <time>2000-01-01T00:00:43.295Z</time>
      </trkpt>
      <trkpt lat="59.836172" lon="6.821625">
        <ele>452.41</ele>
        <time>2000-01-01T00:00:43.688Z</time>
      </trkpt>
      <trkpt lat="59.836213" lon="6.821642">
        <ele>454.03</ele>
        <time>2000-01-01T00:00:43.949Z</time>
      </trkpt>
      <trkpt lat="59.836238" lon="6.821696">
        <ele>455.52</ele>
        <time>2000-01-01T00:00:44.179Z</time>
      </trkpt>
      <trkpt lat="59.836242" lon="6.821741">
        <ele>456.2</ele>
        <time>2000-01-01T00:00:44.322Z</time>
      </trkpt>
      <trkpt lat="59.836249" lon="6.82181">
        <ele>457.23</ele>
        <time>2000-01-01T00:00:44.543Z</time>
      </trkpt>
      <trkpt lat="59.83625" lon="6.821968">
        <ele>459.07</ele>
        <time>2000-01-01T00:00:45.039Z</time>
      </trkpt>
      <trkpt lat="59.836266" lon="6.822137">
        <ele>461.15</ele>
        <time>2000-01-01T00:00:45.579Z</time>
      </trkpt>
      <trkpt lat="59.83629" lon="6.822168">
        <ele>461.83</ele>
        <time>2000-01-01T00:00:45.757Z</time>
      </trkpt>
      <trkpt lat="59.83631" lon="6.822025">
        <ele>461.53</ele>
        <time>2000-01-01T00:00:46.223Z</time>
      </trkpt>
      <trkpt lat="59.836378" lon="6.821677">
        <ele>461.07</ele>
        <time>2000-01-01T00:00:47.395Z</time>
      </trkpt>
      <trkpt lat="59.836392" lon="6.821523">
        <ele>461.23</ele>
        <time>2000-01-01T00:00:47.886Z</time>
      </trkpt>
      <trkpt lat="59.836387" lon="6.821377">
        <ele>461.68</ele>
        <time>2000-01-01T00:00:48.345Z</time>
      </trkpt>
      <trkpt lat="59.836375" lon="6.821297">
        <ele>462.02</ele>
        <time>2000-01-01T00:00:48.607Z</time>
      </trkpt>
      <trkpt lat="59.836266" lon="6.820793">
        <ele>464.28</ele>
        <time>2000-01-01T00:00:50.330Z</time>
      </trkpt>
      <trkpt lat="59.83618" lon="6.820443">
        <ele>465.43</ele>
        <time>2000-01-01T00:00:51.553Z</time>
      </trkpt>
      <trkpt lat="59.836159" lon="6.820304">
        <ele>465.65</ele>
        <time>2000-01-01T00:00:52.008Z</time>
      </trkpt>
      <trkpt lat="59.836155" lon="6.820145">
        <ele>465.7</ele>
        <time>2000-01-01T00:00:52.507Z</time>
      </trkpt>
      <trkpt lat="59.836166" lon="6.819823">
        <ele>464.82</ele>
        <time>2000-01-01T00:00:53.520Z</time>
      </trkpt>
      <trkpt lat="59.836142" lon="6.819678">
        <ele>464.42</ele>
        <time>2000-01-01T00:00:53.999Z</time>
      </trkpt>
      <trkpt lat="59.836106" lon="6.819546">
        <ele>464.48</ele>
        <time>2000-01-01T00:00:54.470Z</time>
      </trkpt>
      <trkpt lat="59.83602" lon="6.819301">
        <ele>463.01</ele>
        <time>2000-01-01T00:00:55.408Z</time>
      </trkpt>
      <trkpt lat="59.83592" lon="6.819073">
        <ele>462.15</ele>
        <time>2000-01-01T00:00:56.358Z</time>
      </trkpt>
      <trkpt lat="59.835814" lon="6.818879">
        <ele>460.37</ele>
        <time>2000-01-01T00:00:57.257Z</time>
      </trkpt>
      <trkpt lat="59.83575" lon="6.818551">
        <ele>461.6</ele>
        <time>2000-01-01T00:00:58.361Z</time>
      </trkpt>
      <trkpt lat="59.835731" lon="6.818289">
        <ele>463.57</ele>
        <time>2000-01-01T00:00:59.191Z</time>
      </trkpt>
      <trkpt lat="59.835731" lon="6.818289">
        <ele>463.57</ele>
        <time>2000-01-01T00:00:59.191Z</time>
      </trkpt>
      <trkpt lat="59.835731" lon="6.818338">
        <ele>463.19</ele>
        <time>2000-01-01T00:00:59.344Z</time>
      </trkpt>
      <trkpt lat="59.836032" lon="6.818156">
        <ele>475.35</ele>
        <time>2000-01-01T00:01:01.308Z</time>
      </trkpt>
      <trkpt lat="59.836216" lon="6.817968">
        <ele>484.02</ele>
        <time>2000-01-01T00:01:02.599Z</time>
      </trkpt>
      <trkpt lat="59.836348" lon="6.817537">
        <ele>495.65</ele>
        <time>2000-01-01T00:01:04.182Z</time>
      </trkpt>
      <trkpt lat="59.836531" lon="6.817177">
        <ele>502.31</ele>
        <time>2000-01-01T00:01:05.789Z</time>
      </trkpt>
      <trkpt lat="59.836531" lon="6.817177">
        <ele>502.31</ele>
        <time>2000-01-01T00:01:05.789Z</time>
      </trkpt>
      <trkpt lat="59.836531" lon="6.817177">
        <ele>502.31</ele>
        <time>2000-01-01T00:01:05.789Z</time>
      </trkpt>
      <trkpt lat="59.836531" lon="6.817177">
        <ele>502.31</ele>
        <time>2000-01-01T00:01:05.789Z</time>
      </trkpt>
      <trkpt lat="59.836531" lon="6.817177">
        <ele>502.31</ele>
        <time>2000-01-01T00:01:05.789Z</time>
      </trkpt>
      <trkpt lat="59.836531" lon="6.817177">
        <ele>502.31</ele>
        <time>2000-01-01T00:01:05.789Z</time>
      </trkpt>
      <trkpt lat="59.836531" lon="6.817177">
        <ele>502.31</ele>
        <time>2000-01-01T00:01:05.789Z</time>
      </trkpt>
      <trkpt lat="59.836962" lon="6.81725">
        <ele>511.53</ele>
        <time>2000-01-01T00:01:05.789Z</time>
      </trkpt>
      <trkpt lat="59.837197" lon="6.817234">
        <ele>517.78</ele>
        <time>2000-01-01T00:01:05.789Z</time>
      </trkpt>
      <trkpt lat="59.837267" lon="6.817229">
        <ele>519.64</ele>
        <time>2000-01-01T00:01:05.789Z</time>
      </trkpt>
      <trkpt lat="59.83741" lon="6.817339">
        <ele>523.24</ele>
        <time>2000-01-01T00:01:05.789Z</time>
      </trkpt>
      <trkpt lat="59.837557" lon="6.817904">
        <ele>532.01</ele>
        <time>2000-01-01T00:01:05.789Z</time>
      </trkpt>
      <trkpt lat="59.837768" lon="6.818105">
        <ele>538.29</ele>
        <time>2000-01-01T00:01:05.789Z</time>
      </trkpt>
      <trkpt lat="59.837777" lon="6.818114">
        <ele>538.56</ele>
        <time>2000-01-01T00:01:05.789Z</time>
      </trkpt>
      <trkpt lat="59.838152" lon="6.818008">
        <ele>549.87</ele>
        <time>2000-01-01T00:01:05.789Z</time>
      </trkpt>
      <trkpt lat="59.838259" lon="6.818092">
        <ele>553.81</ele>
        <time>2000-01-01T00:01:05.789Z</time>
      </trkpt>
      <trkpt lat="59.838395" lon="6.818716">
        <ele>561.8</ele>
        <time>2000-01-01T00:01:05.789Z</time>
      </trkpt>
      <trkpt lat="59.838522" lon="6.81886">
        <ele>564.56</ele>
        <time>2000-01-01T00:01:05.789Z</time>
      </trkpt>
      <trkpt lat="59.838893" lon="6.818706">
        <ele>576.06</ele>
        <time>2000-01-01T00:01:05.789Z</time>
      </trkpt>
      <trkpt lat="59.83895" lon="6.818775">
        <ele>578.54</ele>
        <time>2000-01-01T00:01:05.789Z</time>
      </trkpt>
      <trkpt lat="59.839009" lon="6.819227">
        <ele>582.91</ele>
        <time>2000-01-01T00:01:05.789Z</time>
      </trkpt>
      <trkpt lat="59.839112" lon="6.819291">
        <ele>585</ele>
        <time>2000-01-01T00:01:05.789Z</time>
      </trkpt>
      <trkpt lat="59.83946" lon="6.819508">
        <ele>592.06</ele>
        <time>2000-01-01T00:01:05.789Z</time>
      </trkpt>
      <trkpt lat="59.839751" lon="6.819444">
        <ele>597.53</ele>
        <time>2000-01-01T00:01:05.789Z</time>
      </trkpt>
      <trkpt lat="59.839884" lon="6.819334">
        <ele>600.78</ele>
        <time>2000-01-01T00:01:05.789Z</time>
      </trkpt>
      <trkpt lat="59.840154" lon="6.819283">
        <ele>606.87</ele>
        <time>2000-01-01T00:01:05.789Z</time>
      </trkpt>
      <trkpt lat="59.840689" lon="6.819537">
        <ele>612.7</ele>
        <time>2000-01-01T00:01:05.789Z</time>
      </trkpt>
      <trkpt lat="59.841001" lon="6.819472">
        <ele>617.29</ele>
        <time>2000-01-01T00:01:05.789Z</time>
      </trkpt>
      <trkpt lat="59.841539" lon="6.819789">
        <ele>623.66</ele>
        <time>2000-01-01T00:01:05.789Z</time>
      </trkpt>
      <trkpt lat="59.841675" lon="6.819942">
        <ele>625.67</ele>
        <time>2000-01-01T00:01:05.789Z</time>
      </trkpt>
      <trkpt lat="59.842195" lon="6.820254">
        <ele>632.78</ele>
        <time>2000-01-01T00:01:05.789Z</time>
      </trkpt>
      <trkpt lat="59.843074" lon="6.820703">
        <ele>636.61</ele>
        <time>2000-01-01T00:01:05.789Z</time>
      </trkpt>
      <trkpt lat="59.84334" lon="6.820725">
        <ele>637.06</ele>
        <time>2000-01-01T00:01:05.789Z</time>
      </trkpt>
      <trkpt lat="59.843585" lon="6.820863">
        <ele>636.88</ele>
        <time>2000-01-01T00:01:05.789Z</time>
      </trkpt>
      <trkpt lat="59.84383" lon="6.821002">
        <ele>639.98</ele>
        <time>2000-01-01T00:01:05.789Z</time>
      </trkpt>
      <trkpt lat="59.844036" lon="6.821279">
        <ele>642.89</ele>
        <time>2000-01-01T00:01:05.789Z</time>
      </trkpt>
      <trkpt lat="59.844509" lon="6.821335">
        <ele>648.69</ele>
        <time>2000-01-01T00:01:05.789Z</time>
      </trkpt>
      <trkpt lat="59.844745" lon="6.821363">
        <ele>654.83</ele>
        <time>2000-01-01T00:01:05.789Z</time>
      </trkpt>
      <trkpt lat="59.845327" lon="6.821631">
        <ele>666.6</ele>
        <time>2000-01-01T00:01:05.789Z</time>
      </trkpt>
      <trkpt lat="59.845836" lon="6.822082">
        <ele>673.62</ele>
        <time>2000-01-01T00:01:05.789Z</time>
      </trkpt>
      <trkpt lat="59.846057" lon="6.822307">
        <ele>680.43</ele>
        <time>2000-01-01T00:01:05.789Z</time>
      </trkpt>
      <trkpt lat="59.846278" lon="6.822532">
        <ele>685.13</ele>
        <time>2000-01-01T00:01:05.789Z</time>
      </trkpt>
      <trkpt lat="59.846541" lon="6.822978">
        <ele>689.42</ele>
        <time>2000-01-01T00:01:05.789Z</time>
      </trkpt>
      <trkpt lat="59.846742" lon="6.823282">
        <ele>695.12</ele>
        <time>2000-01-01T00:01:05.789Z</time>
      </trkpt>
      <trkpt lat="59.846942" lon="6.823587">
        <ele>698.29</ele>
        <time>2000-01-01T00:01:05.789Z</time>
      </trkpt>
      <trkpt lat="59.847141" lon="6.823992">
        <ele>701.05</ele>
        <time>2000-01-01T00:01:05.789Z</time>
      </trkpt>
      <trkpt lat="59.847292" lon="6.824478">
        <ele>705.45</ele>
        <time>2000-01-01T00:01:05.789Z</time>
      </trkpt>
      <trkpt lat="59.847314" lon="6.824511">
        <ele>705.91</ele>
        <time>2000-01-01T00:01:05.789Z</time>
      </trkpt>
      <trkpt lat="59.847312" lon="6.824507">
        <ele>705.96</ele>
        <time>2000-01-01T00:01:05.789Z</time>
      </trkpt>
      <trkpt lat="59.847258" lon="6.824638">
        <ele>705.58</ele>
        <time>2000-01-01T00:01:05.789Z</time>
      </trkpt>
      <trkpt lat="59.847265" lon="6.824857">
        <ele>706.93</ele>
        <time>2000-01-01T00:01:05.789Z</time>
      </trkpt>
      <trkpt lat="59.847229" lon="6.825137">
        <ele>708.81</ele>
        <time>2000-01-01T00:01:05.789Z</time>
      </trkpt>
      <trkpt lat="59.847202" lon="6.825213">
        <ele>710.16</ele>
        <time>2000-01-01T00:01:05.789Z</time>
      </trkpt>
      <trkpt lat="59.847012" lon="6.825253">
        <ele>713.9</ele>
        <time>2000-01-01T00:01:05.789Z</time>
      </trkpt>
      <trkpt lat="59.846993" lon="6.8253">
        <ele>714.39</ele>
        <time>2000-01-01T00:01:05.789Z</time>
      </trkpt>
      <trkpt lat="59.847006" lon="6.82546">
        <ele>713.77</ele>
        <time>2000-01-01T00:01:05.789Z</time>
      </trkpt>
      <trkpt lat="59.847031" lon="6.825533">
        <ele>713.06</ele>
        <time>2000-01-01T00:01:05.789Z</time>
      </trkpt>
      <trkpt lat="59.84703" lon="6.825635">
        <ele>712.85</ele>
        <time>2000-01-01T00:01:05.789Z</time>
      </trkpt>
      <trkpt lat="59.847053" lon="6.825644">
        <ele>712.52</ele>
        <time>2000-01-01T00:01:05.789Z</time>
      </trkpt>
      <trkpt lat="59.847119" lon="6.825842">
        <ele>712.58</ele>
        <time>2000-01-01T00:01:05.789Z</time>
      </trkpt>
      <trkpt lat="59.847115" lon="6.825994">
        <ele>714.17</ele>
        <time>2000-01-01T00:01:05.789Z</time>
      </trkpt>
      <trkpt lat="59.847096" lon="6.82604">
        <ele>715.07</ele>
        <time>2000-01-01T00:01:05.789Z</time>
      </trkpt>
      <trkpt lat="59.847079" lon="6.826128">
        <ele>714.84</ele>
        <time>2000-01-01T00:01:05.789Z</time>
      </trkpt>
      <trkpt lat="59.847062" lon="6.826157">
        <ele>714.83</ele>
        <time>2000-01-01T00:01:05.789Z</time>
      </trkpt>
      <trkpt lat="59.847078" lon="6.826163">
        <ele>714.51</ele>
        <time>2000-01-01T00:01:05.789Z</time>
      </trkpt>
      <trkpt lat="59.847087" lon="6.826189">
        <ele>714.1</ele>
        <time>2000-01-01T00:01:05.789Z</time>
      </trkpt>
      <trkpt lat="59.847087" lon="6.826239">
        <ele>713.7</ele>
        <time>2000-01-01T00:01:05.789Z</time>
      </trkpt>
      <trkpt lat="59.847106" lon="6.826279">
        <ele>713.48</ele>
        <time>2000-01-01T00:01:05.789Z</time>
      </trkpt>
      <trkpt lat="59.847098" lon="6.826434">
        <ele>714.01</ele>
        <time>2000-01-01T00:01:05.789Z</time>
      </trkpt>
      <trkpt lat="59.847085" lon="6.826551">
        <ele>715.31</ele>
        <time>2000-01-01T00:01:05.789Z</time>
      </trkpt>
      <trkpt lat="59.847096" lon="6.82667">
        <ele>716.36</ele>
        <time>2000-01-01T00:01:05.789Z</time>
      </trkpt>
      <trkpt lat="59.847138" lon="6.826775">
        <ele>717.3</ele>
        <time>2000-01-01T00:01:05.789Z</time>
      </trkpt>
      <trkpt lat="59.847138" lon="6.826836">
        <ele>716.31</ele>
        <time>2000-01-01T00:01:05.789Z</time>
      </trkpt>
      <trkpt lat="59.847194" lon="6.82695">
        <ele>714.18</ele>
        <time>2000-01-01T00:01:05.789Z</time>
      </trkpt>
      <trkpt lat="59.847213" lon="6.826915">
        <ele>714.28</ele>
        <time>2000-01-01T00:01:05.789Z</time>
      </trkpt>
      <trkpt lat="59.847276" lon="6.827061">
        <ele>711.29</ele>
        <time>2000-01-01T00:01:05.789Z</time>
      </trkpt>
      <trkpt lat="59.847299" lon="6.827218">
        <ele>711.24</ele>
        <time>2000-01-01T00:01:05.789Z</time>
      </trkpt>
      <trkpt lat="59.847327" lon="6.8273">
        <ele>710.98</ele>
        <time>2000-01-01T00:01:05.789Z</time>
      </trkpt>
      <trkpt lat="59.847334" lon="6.827472">
        <ele>711.62</ele>
        <time>2000-01-01T00:01:05.789Z</time>
      </trkpt>
      <trkpt lat="59.847346" lon="6.827542">
        <ele>711.64</ele>
        <time>2000-01-01T00:01:05.789Z</time>
      </trkpt>
      <trkpt lat="59.847391" lon="6.827696">
        <ele>712.03</ele>
        <time>2000-01-01T00:01:05.789Z</time>
      </trkpt>
      <trkpt lat="59.847418" lon="6.827821">
        <ele>713.7</ele>
        <time>2000-01-01T00:01:05.789Z</time>
      </trkpt>
      <trkpt lat="59.847413" lon="6.827833">
        <ele>713.88</ele>
        <time>2000-01-01T00:01:05.789Z</time>
      </trkpt>
      <trkpt lat="59.847385" lon="6.827906">
        <ele>714.99</ele>
        <time>2000-01-01T00:01:05.789Z</time>
      </trkpt>
      <trkpt lat="59.84734" lon="6.827944">
        <ele>716.48</ele>
        <time>2000-01-01T00:01:05.789Z</time>
      </trkpt>
      <trkpt lat="59.847299" lon="6.827918">
        <ele>717.22</ele>
        <time>2000-01-01T00:01:05.789Z</time>
      </trkpt>
      <trkpt lat="59.847274" lon="6.827941">
        <ele>718.03</ele>
        <time>2000-01-01T00:01:05.789Z</time>
      </trkpt>
      <trkpt lat="59.847251" lon="6.827903">
        <ele>718.51</ele>
        <time>2000-01-01T00:01:05.789Z</time>
      </trkpt>
      <trkpt lat="59.847239" lon="6.8279">
        <ele>718.85</ele>
        <time>2000-01-01T00:01:05.789Z</time>
      </trkpt>
      <trkpt lat="59.847153" lon="6.827976">
        <ele>721.84</ele>
        <time>2000-01-01T00:01:05.789Z</time>
      </trkpt>
      <trkpt lat="59.847137" lon="6.827953">
        <ele>722.26</ele>
        <time>2000-01-01T00:01:05.789Z</time>
      </trkpt>
      <trkpt lat="59.847093" lon="6.827993">
        <ele>723.44</ele>
        <time>2000-01-01T00:01:05.789Z</time>
      </trkpt>
      <trkpt lat="59.847068" lon="6.828034">
        <ele>724.31</ele>
        <time>2000-01-01T00:01:05.789Z</time>
      </trkpt>
      <trkpt lat="59.84705" lon="6.82809">
        <ele>725.18</ele>
        <time>2000-01-01T00:01:05.789Z</time>
      </trkpt>
      <trkpt lat="59.847082" lon="6.828095">
        <ele>724.16</ele>
        <time>2000-01-01T00:01:05.789Z</time>
      </trkpt>
      <trkpt lat="59.847028" lon="6.828168">
        <ele>726.53</ele>
        <time>2000-01-01T00:01:05.789Z</time>
      </trkpt>
      <trkpt lat="59.847011" lon="6.828139">
        <ele>726.92</ele>
        <time>2000-01-01T00:01:05.789Z</time>
      </trkpt>
      <trkpt lat="59.846934" lon="6.828154">
        <ele>729.78</ele>
        <time>2000-01-01T00:01:05.789Z</time>
      </trkpt>
      <trkpt lat="59.846914" lon="6.828212">
        <ele>731.17</ele>
        <time>2000-01-01T00:01:05.789Z</time>
      </trkpt>
      <trkpt lat="59.846847" lon="6.828334">
        <ele>733.36</ele>
        <time>2000-01-01T00:01:05.789Z</time>
      </trkpt>
      <trkpt lat="59.846839" lon="6.828419">
        <ele>733.25</ele>
        <time>2000-01-01T00:01:05.789Z</time>
      </trkpt>
      <trkpt lat="59.84679" lon="6.828568">
        <ele>734.38</ele>
        <time>2000-01-01T00:01:05.789Z</time>
      </trkpt>
      <trkpt lat="59.846795" lon="6.828606">
        <ele>734.22</ele>
        <time>2000-01-01T00:01:05.789Z</time>
      </trkpt>
      <trkpt lat="59.846772" lon="6.82874">
        <ele>737.22</ele>
        <time>2000-01-01T00:01:05.789Z</time>
      </trkpt>
      <trkpt lat="59.846687" lon="6.828903">
        <ele>742.36</ele>
        <time>2000-01-01T00:01:05.789Z</time>
      </trkpt>
      <trkpt lat="59.846655" lon="6.828912">
        <ele>743.74</ele>
        <time>2000-01-01T00:01:05.789Z</time>
      </trkpt>
      <trkpt lat="59.846596" lon="6.828897">
        <ele>746.13</ele>
        <time>2000-01-01T00:01:05.789Z</time>
      </trkpt>
      <trkpt lat="59.846555" lon="6.828839">
        <ele>748.23</ele>
        <time>2000-01-01T00:01:05.789Z</time>
      </trkpt>
      <trkpt lat="59.84646" lon="6.828865">
        <ele>748.97</ele>
        <time>2000-01-01T00:01:05.789Z</time>
      </trkpt>
      <trkpt lat="59.846431" lon="6.828938">
        <ele>749.52</ele>
        <time>2000-01-01T00:01:05.789Z</time>
      </trkpt>
      <trkpt lat="59.84641" lon="6.828947">
        <ele>749.96</ele>
        <time>2000-01-01T00:01:05.789Z</time>
      </trkpt>
      <trkpt lat="59.846378" lon="6.829016">
        <ele>751</ele>
        <time>2000-01-01T00:01:05.789Z</time>
      </trkpt>
      <trkpt lat="59.846382" lon="6.829057">
        <ele>751.09</ele>
        <time>2000-01-01T00:01:05.789Z</time>
      </trkpt>
      <trkpt lat="59.846298" lon="6.828993">
        <ele>754.49</ele>
        <time>2000-01-01T00:01:05.789Z</time>
      </trkpt>
      <trkpt lat="59.846217" lon="6.829084">
        <ele>759.59</ele>
        <time>2000-01-01T00:01:05.789Z</time>
      </trkpt>
      <trkpt lat="59.846188" lon="6.829084">
        <ele>761.19</ele>
        <time>2000-01-01T00:01:05.789Z</time>
      </trkpt>
      <trkpt lat="59.846112" lon="6.829151">
        <ele>765.96</ele>
        <time>2000-01-01T00:01:05.789Z</time>
      </trkpt>
      <trkpt lat="59.846034" lon="6.829183">
        <ele>771.36</ele>
        <time>2000-01-01T00:01:05.789Z</time>
      </trkpt>
      <trkpt lat="59.845955" lon="6.829098">
        <ele>776.54</ele>
        <time>2000-01-01T00:01:05.789Z</time>
      </trkpt>
      <trkpt lat="59.845915" lon="6.82904">
        <ele>779.54</ele>
        <time>2000-01-01T00:01:05.789Z</time>
      </trkpt>
      <trkpt lat="59.845911" lon="6.829015">
        <ele>780.12</ele>
        <time>2000-01-01T00:01:05.789Z</time>
      </trkpt>
      <trkpt lat="59.845911" lon="6.829015">
        <ele>780.12</ele>
        <time>2000-01-01T00:01:05.789Z</time>
      </trkpt>
      <trkpt lat="59.845911" lon="6.828947">
        <ele>779.75</ele>
        <time>2000-01-01T00:01:05.789Z</time>
      </trkpt>
      <trkpt lat="59.845886" lon="6.828874">
        <ele>780.01</ele>
        <time>2000-01-01T00:01:05.789Z</time>
      </trkpt>
      <trkpt lat="59.845855" lon="6.828865">
        <ele>782.35</ele>
        <time>2000-01-01T00:01:05.789Z</time>
      </trkpt>
      <trkpt lat="59.84581" lon="6.828792">
        <ele>784.1</ele>
        <time>2000-01-01T00:01:05.789Z</time>
      </trkpt>
      <trkpt lat="59.845795" lon="6.828818">
        <ele>785.95</ele>
        <time>2000-01-01T00:01:05.789Z</time>
      </trkpt>
      <trkpt lat="59.84576" lon="6.828798">
        <ele>787.59</ele>
        <time>2000-01-01T00:01:05.789Z</time>
      </trkpt>
      <trkpt lat="59.845678" lon="6.828821">
        <ele>790.07</ele>
        <time>2000-01-01T00:01:05.789Z</time>
      </trkpt>
      <trkpt lat="59.845598" lon="6.828885">
        <ele>791.69</ele>
        <time>2000-01-01T00:01:05.789Z</time>
      </trkpt>
      <trkpt lat="59.845503" lon="6.82892">
        <ele>793.94</ele>
        <time>2000-01-01T00:01:05.789Z</time>
      </trkpt>
      <trkpt lat="59.845472" lon="6.82899">
        <ele>796.84</ele>
        <time>2000-01-01T00:01:05.789Z</time>
      </trkpt>
      <trkpt lat="59.845409" lon="6.829066">
        <ele>799.24</ele>
        <time>2000-01-01T00:01:05.789Z</time>
      </trkpt>
      <trkpt lat="59.845365" lon="6.82929">
        <ele>802.41</ele>
        <time>2000-01-01T00:01:05.789Z</time>
      </trkpt>
      <trkpt lat="59.84534" lon="6.829349">
        <ele>803.57</ele>
        <time>2000-01-01T00:01:05.789Z</time>
      </trkpt>
      <trkpt lat="59.845227" lon="6.829506">
        <ele>806.52</ele>
        <time>2000-01-01T00:01:05.789Z</time>
      </trkpt>
      <trkpt lat="59.845235" lon="6.829562">
        <ele>806.71</ele>
        <time>2000-01-01T00:01:05.789Z</time>
      </trkpt>
      <trkpt lat="59.845218" lon="6.829626">
        <ele>807.65</ele>
        <time>2000-01-01T00:01:05.789Z</time>
      </trkpt>
      <trkpt lat="59.845167" lon="6.829643">
        <ele>809.48</ele>
        <time>2000-01-01T00:01:05.789Z</time>
      </trkpt>
      <trkpt lat="59.845131" lon="6.829681">
        <ele>811.18</ele>
        <time>2000-01-01T00:01:05.789Z</time>
      </trkpt>
      <trkpt lat="59.845097" lon="6.829655">
        <ele>812.04</ele>
        <time>2000-01-01T00:01:05.789Z</time>
      </trkpt>
      <trkpt lat="59.845082" lon="6.829664">
        <ele>812.65</ele>
        <time>2000-01-01T00:01:05.789Z</time>
      </trkpt>
      <trkpt lat="59.845078" lon="6.829693">
        <ele>813.14</ele>
        <time>2000-01-01T00:01:05.789Z</time>
      </trkpt>
      <trkpt lat="59.845" lon="6.829789">
        <ele>816.7</ele>
        <time>2000-01-01T00:01:05.789Z</time>
      </trkpt>
      <trkpt lat="59.844896" lon="6.829798">
        <ele>819.61</ele>
        <time>2000-01-01T00:01:05.789Z</time>
      </trkpt>
      <trkpt lat="59.844864" lon="6.829818">
        <ele>820.59</ele>
        <time>2000-01-01T00:01:05.789Z</time>
      </trkpt>
      <trkpt lat="59.844814" lon="6.829879">
        <ele>824.46</ele>
        <time>2000-01-01T00:01:05.789Z</time>
      </trkpt>
      <trkpt lat="59.844784" lon="6.829949">
        <ele>826.12</ele>
        <time>2000-01-01T00:01:05.789Z</time>
      </trkpt>
      <trkpt lat="59.844669" lon="6.83001">
        <ele>829.34</ele>
        <time>2000-01-01T00:01:05.789Z</time>
      </trkpt>
      <trkpt lat="59.844589" lon="6.82999">
        <ele>830.51</ele>
        <time>2000-01-01T00:01:05.789Z</time>
      </trkpt>
      <trkpt lat="59.844529" lon="6.83001">
        <ele>831.62</ele>
        <time>2000-01-01T00:01:05.789Z</time>
      </trkpt>
      <trkpt lat="59.844514" lon="6.82999">
        <ele>831.96</ele>
        <time>2000-01-01T00:01:05.789Z</time>
      </trkpt>
      <trkpt lat="59.844475" lon="6.829984">
        <ele>832.88</ele>
        <time>2000-01-01T00:01:05.789Z</time>
      </trkpt>
      <trkpt lat="59.844438" lon="6.830031">
        <ele>833.83</ele>
        <time>2000-01-01T00:01:05.789Z</time>
      </trkpt>
      <trkpt lat="59.844381" lon="6.830002">
        <ele>835.02</ele>
        <time>2000-01-01T00:01:05.789Z</time>
      </trkpt>
      <trkpt lat="59.844261" lon="6.829769">
        <ele>837.67</ele>
        <time>2000-01-01T00:01:05.789Z</time>
      </trkpt>
      <trkpt lat="59.84417" lon="6.829745">
        <ele>840.04</ele>
        <time>2000-01-01T00:01:05.789Z</time>
      </trkpt>
      <trkpt lat="59.844104" lon="6.829696">
        <ele>842.15</ele>
        <time>2000-01-01T00:01:05.789Z</time>
      </trkpt>
      <trkpt lat="59.844044" lon="6.829611">
        <ele>844.52</ele>
        <time>2000-01-01T00:01:05.789Z</time>
      </trkpt>
      <trkpt lat="59.843999" lon="6.829585">
        <ele>845.87</ele>
        <time>2000-01-01T00:01:05.789Z</time>
      </trkpt>
      <trkpt lat="59.843882" lon="6.829643">
        <ele>847.91</ele>
        <time>2000-01-01T00:01:05.789Z</time>
      </trkpt>
      <trkpt lat="59.843832" lon="6.829643">
        <ele>849.38</ele>
        <time>2000-01-01T00:01:05.789Z</time>
      </trkpt>
      <trkpt lat="59.843782" lon="6.829547">
        <ele>851.61</ele>
        <time>2000-01-01T00:01:05.789Z</time>
      </trkpt>
      <trkpt lat="59.843738" lon="6.82943">
        <ele>853.34</ele>
        <time>2000-01-01T00:01:05.789Z</time>
      </trkpt>
      <trkpt lat="59.843729" lon="6.829186">
        <ele>854.46</ele>
        <time>2000-01-01T00:01:05.789Z</time>
      </trkpt>
      <trkpt lat="59.843709" lon="6.829025">
        <ele>856.14</ele>
        <time>2000-01-01T00:01:05.789Z</time>
      </trkpt>
      <trkpt lat="59.843634" lon="6.828894">
        <ele>859.18</ele>
        <time>2000-01-01T00:01:05.789Z</time>
      </trkpt>
      <trkpt lat="59.843583" lon="6.828853">
        <ele>861.07</ele>
        <time>2000-01-01T00:01:05.789Z</time>
      </trkpt>
      <trkpt lat="59.843537" lon="6.828839">
        <ele>862.36</ele>
        <time>2000-01-01T00:01:05.789Z</time>
      </trkpt>
      <trkpt lat="59.843428" lon="6.828632">
        <ele>867.18</ele>
        <time>2000-01-01T00:01:05.789Z</time>
      </trkpt>
      <trkpt lat="59.843403" lon="6.8286">
        <ele>868.2</ele>
        <time>2000-01-01T00:01:05.789Z</time>
      </trkpt>
      <trkpt lat="59.843362" lon="6.828597">
        <ele>869.3</ele>
        <time>2000-01-01T00:01:05.789Z</time>
      </trkpt>
      <trkpt lat="59.843293" lon="6.828544">
        <ele>872.75</ele>
        <time>2000-01-01T00:01:05.789Z</time>
      </trkpt>
      <trkpt lat="59.843278" lon="6.828562">
        <ele>873.11</ele>
        <time>2000-01-01T00:01:05.789Z</time>
      </trkpt>
      <trkpt lat="59.843256" lon="6.828538">
        <ele>874.26</ele>
        <time>2000-01-01T00:01:05.789Z</time>
      </trkpt>
      <trkpt lat="59.843146" lon="6.828544">
        <ele>877.59</ele>
        <time>2000-01-01T00:01:05.789Z</time>
      </trkpt>
      <trkpt lat="59.843108" lon="6.828492">
        <ele>877.98</ele>
        <time>2000-01-01T00:01:05.789Z</time>
      </trkpt>
      <trkpt lat="59.843088" lon="6.828419">
        <ele>878.25</ele>
        <time>2000-01-01T00:01:05.789Z</time>
      </trkpt>
      <trkpt lat="59.84305" lon="6.828361">
        <ele>879.3</ele>
        <time>2000-01-01T00:01:05.789Z</time>
      </trkpt>
      <trkpt lat="59.842984" lon="6.82841">
        <ele>880.09</ele>
        <time>2000-01-01T00:01:05.789Z</time>
      </trkpt>
      <trkpt lat="59.842955" lon="6.828451">
        <ele>880.67</ele>
        <time>2000-01-01T00:01:05.789Z</time>
      </trkpt>
      <trkpt lat="59.842912" lon="6.828469">
        <ele>882.02</ele>
        <time>2000-01-01T00:01:05.789Z</time>
      </trkpt>
      <trkpt lat="59.84287" lon="6.828439">
        <ele>882.59</ele>
        <time>2000-01-01T00:01:05.789Z</time>
      </trkpt>
      <trkpt lat="59.842818" lon="6.828276">
        <ele>884.71</ele>
        <time>2000-01-01T00:01:05.789Z</time>
      </trkpt>
      <trkpt lat="59.842748" lon="6.828256">
        <ele>887.63</ele>
        <time>2000-01-01T00:01:05.789Z</time>
      </trkpt>
      <trkpt lat="59.842707" lon="6.828183">
        <ele>890.35</ele>
        <time>2000-01-01T00:01:05.789Z</time>
      </trkpt>
      <trkpt lat="59.84266" lon="6.828203">
        <ele>890.96</ele>
        <time>2000-01-01T00:01:05.789Z</time>
      </trkpt>
      <trkpt lat="59.842637" lon="6.828232">
        <ele>890.47</ele>
        <time>2000-01-01T00:01:05.789Z</time>
      </trkpt>
      <trkpt lat="59.842594" lon="6.828227">
        <ele>890.71</ele>
        <time>2000-01-01T00:01:05.789Z</time>
      </trkpt>
      <trkpt lat="59.842572" lon="6.828186">
        <ele>891.26</ele>
        <time>2000-01-01T00:01:05.789Z</time>
      </trkpt>
      <trkpt lat="59.842584" lon="6.828142">
        <ele>891.9</ele>
        <time>2000-01-01T00:01:05.789Z</time>
      </trkpt>
      <trkpt lat="59.842616" lon="6.828122">
        <ele>892.55</ele>
        <time>2000-01-01T00:01:05.789Z</time>
      </trkpt>
      <trkpt lat="59.842668" lon="6.82804">
        <ele>892.91</ele>
        <time>2000-01-01T00:01:05.789Z</time>
      </trkpt>
      <trkpt lat="59.842725" lon="6.827915">
        <ele>893.37</ele>
        <time>2000-01-01T00:01:05.789Z</time>
      </trkpt>
      <trkpt lat="59.842794" lon="6.827818">
        <ele>893.26</ele>
        <time>2000-01-01T00:01:05.789Z</time>
      </trkpt>
    </trkseg>
  </trk>
</gpx>
