<?xml version="1.0" encoding="UTF-8"?>
<gpx xmlns="http://www.topografix.com/GPX/1/1" creator="FootpathAndroid/2.4.2/1599" version="1.1" xmlns:xsi="http://www.w3.org/2001/XMLSchema-instance" xsi:xchemaLocation="http://www.topografix.com/GPX/1/1 http://www.topografix.com/GPX/1/1/gpx.xsd">
	<metadata>
		<name>Fjellfolkets fortellersti Røldal</name>
		<link href="https://footpathapp.com">
			<text>Footpath</text>
		</link>
		<time>2026-05-20T10:06:58Z</time>
	</metadata>
	<bounds minlat="0" maxlat="0" minlon="0" maxlon="0"/>
	<trk>
		<name>Fjellfolkets fortellersti Røldal</name>
		<trkseg>
			<trkpt lat="59.83241" lon="6.81841">
				<ele>398.69964599609375</ele>
				<time>2000-01-01T00:00:00Z</time>
			</trkpt>
			<trkpt lat="59.83249" lon="6.81826">
				<ele>399.5972595214844</ele>
				<time>2000-01-01T00:00:00Z</time>
			</trkpt>
			<trkpt lat="59.83259101750905" lon="6.818014664966467">
				<ele>400.89886474609375</ele>
				<time>2000-01-01T00:00:00Z</time>
			</trkpt>
			<trkpt lat="59.83276170455728" lon="6.8176001459403">
				<ele>401.879150390625</ele>
				<time>2000-01-01T00:00:00Z</time>
			</trkpt>
			<trkpt lat="59.83277" lon="6.81758">
				<ele>401.8863220214844</ele>
				<time>2000-01-01T00:00:00Z</time>
			</trkpt>
			<trkpt lat="59.83288" lon="6.8173">
				<ele>401.9840393066406</ele>
				<time>2000-01-01T00:00:00Z</time>
			</trkpt>
			<trkpt lat="59.83292" lon="6.81716">
				<ele>402.0282897949219</ele>
				<time>2000-01-01T00:00:00Z</time>
			</trkpt>
			<trkpt lat="59.83294" lon="6.81703">
				<ele>402.0650634765625</ele>
				<time>2000-01-01T00:00:00Z</time>
			</trkpt>
			<trkpt lat="59.833" lon="6.81706">
				<ele>402.0387878417969</ele>
				<time>2000-01-01T00:00:00Z</time>
			</trkpt>
			<trkpt lat="59.83305" lon="6.81712">
				<ele>402.0140075683594</ele>
				<time>2000-01-01T00:00:00Z</time>
			</trkpt>
			<trkpt lat="59.83319" lon="6.81727">
				<ele>401.94647216796875</ele>
				<time>2000-01-01T00:00:00Z</time>
			</trkpt>
			<trkpt lat="59.83328" lon="6.81734">
				<ele>401.90545654296875</ele>
				<time>2000-01-01T00:00:00Z</time>
			</trkpt>
			<trkpt lat="59.83334" lon="6.81741">
				<ele>401.87591552734375</ele>
				<time>2000-01-01T00:00:00Z</time>
			</trkpt>
			<trkpt lat="59.83342" lon="6.81755">
				<ele>401.8308410644531</ele>
				<time>2000-01-01T00:00:00Z</time>
			</trkpt>
			<trkpt lat="59.83346" lon="6.81773">
				<ele>401.8216552734375</ele>
				<time>2000-01-01T00:00:00Z</time>
			</trkpt>
			<trkpt lat="59.8335" lon="6.81799">
				<ele>401.8089599609375</ele>
				<time>2000-01-01T00:00:00Z</time>
			</trkpt>
			<trkpt lat="59.83358384960103" lon="6.818390615010417">
				<ele>401.7886962890625</ele>
				<time>2000-01-01T00:00:00Z</time>
			</trkpt>
			<trkpt lat="59.83359" lon="6.81842">
				<ele>401.8056335449219</ele>
				<time>2000-01-01T00:00:00Z</time>
			</trkpt>
			<trkpt lat="59.83368367097672" lon="6.818888355901293">
				<ele>402.0736999511719</ele>
				<time>2000-01-01T00:00:00Z</time>
			</trkpt>
			<trkpt lat="59.8337" lon="6.81897">
				<ele>402.1559753417969</ele>
				<time>2000-01-01T00:00:00Z</time>
			</trkpt>
			<trkpt lat="59.83378676918684" lon="6.819383439289523">
				<ele>402.5755615234375</ele>
				<time>2000-01-01T00:00:00Z</time>
			</trkpt>
			<trkpt lat="59.83387" lon="6.81978">
				<ele>403.2325439453125</ele>
				<time>2000-01-01T00:00:00Z</time>
			</trkpt>
			<trkpt lat="59.83395" lon="6.82027">
				<ele>404.0201721191406</ele>
				<time>2000-01-01T00:00:00Z</time>
			</trkpt>
			<trkpt lat="59.833980742007085" lon="6.820381149325961">
				<ele>404.214111328125</ele>
				<time>2000-01-01T00:00:00Z</time>
			</trkpt>
			<trkpt lat="59.83408" lon="6.82074">
				<ele>405.1207580566406</ele>
				<time>2000-01-01T00:00:00Z</time>
			</trkpt>
			<trkpt lat="59.83421053074968" lon="6.821349159917591">
				<ele>406.58648681640625</ele>
				<time>2000-01-01T00:00:00Z</time>
			</trkpt>
			<trkpt lat="59.83432" lon="6.82186">
				<ele>407.7203674316406</ele>
				<time>2000-01-01T00:00:00Z</time>
			</trkpt>
			<trkpt lat="59.83443917748237" lon="6.822318838972767">
				<ele>408.77496337890625</ele>
				<time>2000-01-01T00:00:00Z</time>
			</trkpt>
			<trkpt lat="59.83452" lon="6.82263">
				<ele>409.1623840332031</ele>
				<time>2000-01-01T00:00:00Z</time>
			</trkpt>
			<trkpt lat="59.83467" lon="6.8233">
				<ele>409.9736633300781</ele>
				<time>2000-01-01T00:00:00Z</time>
			</trkpt>
			<trkpt lat="59.83477" lon="6.82392">
				<ele>410.2343444824219</ele>
				<time>2000-01-01T00:00:00Z</time>
			</trkpt>
			<trkpt lat="59.83478" lon="6.8242">
				<ele>410.3467102050781</ele>
				<time>2000-01-01T00:00:00Z</time>
			</trkpt>
			<trkpt lat="59.834779998513596" lon="6.824328119534953">
				<ele>410.39801025390625</ele>
				<time>2000-01-01T00:00:00Z</time>
			</trkpt>
			<trkpt lat="59.83478" lon="6.82474">
				<ele>410.4638366699219</ele>
				<time>2000-01-01T00:00:00Z</time>
			</trkpt>
			<trkpt lat="59.8348" lon="6.825">
				<ele>410.505859375</ele>
				<time>2000-01-01T00:00:00Z</time>
			</trkpt>
			<trkpt lat="59.83500357502297" lon="6.825840349498474">
				<ele>410.76641845703125</ele>
				<time>2000-01-01T00:00:00Z</time>
			</trkpt>
			<trkpt lat="59.83512053940514" lon="6.8263231049970825">
				<ele>411.46429443359375</ele>
				<time>2000-01-01T00:00:00Z</time>
			</trkpt>
			<trkpt lat="59.83527" lon="6.82694">
				<ele>412.1498718261719</ele>
				<time>2000-01-01T00:00:00Z</time>
			</trkpt>
			<trkpt lat="59.8353" lon="6.82722">
				<ele>412.43646240234375</ele>
				<time>2000-01-01T00:00:00Z</time>
			</trkpt>
			<trkpt lat="59.8353" lon="6.82732">
				<ele>412.53643798828125</ele>
				<time>2000-01-01T00:00:00Z</time>
			</trkpt>
			<trkpt lat="59.83525" lon="6.82749">
				<ele>412.6933898925781</ele>
				<time>2000-01-01T00:00:00Z</time>
			</trkpt>
			<trkpt lat="59.83521" lon="6.82759">
				<ele>412.79522705078125</ele>
				<time>2000-01-01T00:00:00Z</time>
			</trkpt>
			<trkpt lat="59.83517" lon="6.82763">
				<ele>412.8662109375</ele>
				<time>2000-01-01T00:00:00Z</time>
			</trkpt>
			<trkpt lat="59.83512" lon="6.8277">
				<ele>412.963134765625</ele>
				<time>2000-01-01T00:00:00Z</time>
			</trkpt>
			<trkpt lat="59.835" lon="6.8278">
				<ele>412.9828796386719</ele>
				<time>2000-01-01T00:00:00Z</time>
			</trkpt>
			<trkpt lat="59.83486831040821" lon="6.827893279827143">
				<ele>413.0032043457031</ele>
				<time>2000-01-01T00:00:00Z</time>
			</trkpt>
			<trkpt lat="59.83476" lon="6.82797">
				<ele>412.9842529296875</ele>
				<time>2000-01-01T00:00:00Z</time>
			</trkpt>
			<trkpt lat="59.83457" lon="6.82813">
				<ele>412.94671630859375</ele>
				<time>2000-01-01T00:00:00Z</time>
			</trkpt>
			<trkpt lat="59.83451" lon="6.82821">
				<ele>412.6324462890625</ele>
				<time>2000-01-01T00:00:00Z</time>
			</trkpt>
			<trkpt lat="59.83449" lon="6.82814">
				<ele>412.45635986328125</ele>
				<time>2000-01-01T00:00:00Z</time>
			</trkpt>
			<trkpt lat="59.83443" lon="6.82805">
				<ele>412.1294250488281</ele>
				<time>2000-01-01T00:00:00Z</time>
			</trkpt>
			<trkpt lat="59.83423" lon="6.82759">
				<ele>410.79937744140625</ele>
				<time>2000-01-01T00:00:00Z</time>
			</trkpt>
			<trkpt lat="59.83419" lon="6.82752">
				<ele>410.5675964355469</ele>
				<time>2000-01-01T00:00:00Z</time>
			</trkpt>
			<trkpt lat="59.83406" lon="6.82709">
				<ele>409.4703063964844</ele>
				<time>2000-01-01T00:00:00Z</time>
			</trkpt>
			<trkpt lat="59.83379" lon="6.82714">
				<ele>408.2903747558594</ele>
				<time>2000-01-01T00:00:00Z</time>
			</trkpt>
			<trkpt lat="59.83356" lon="6.82719">
				<ele>407.28045654296875</ele>
				<time>2000-01-01T00:00:00Z</time>
			</trkpt>
			<trkpt lat="59.83345" lon="6.82725">
				<ele>406.7322998046875</ele>
				<time>2000-01-01T00:00:00Z</time>
			</trkpt>
			<trkpt lat="59.83333" lon="6.82735">
				<ele>406.1070251464844</ele>
				<time>2000-01-01T00:00:00Z</time>
			</trkpt>
			<trkpt lat="59.83331218245212" lon="6.8273579188367295">
				<ele>406.019287109375</ele>
				<time>2000-01-01T00:00:00Z</time>
			</trkpt>
			<trkpt lat="59.83324" lon="6.82739">
				<ele>405.7270202636719</ele>
				<time>2000-01-01T00:00:00Z</time>
			</trkpt>
			<trkpt lat="59.83311" lon="6.8274">
				<ele>405.2129211425781</ele>
				<time>2000-01-01T00:00:00Z</time>
			</trkpt>
			<trkpt lat="59.83304475496538" lon="6.827401304787168">
				<ele>404.955078125</ele>
				<time>2000-01-01T00:00:00Z</time>
			</trkpt>
			<trkpt lat="59.83277546156213" lon="6.827406690752312">
				<ele>403.8581848144531</ele>
				<time>2000-01-01T00:00:00Z</time>
			</trkpt>
			<trkpt lat="59.83261" lon="6.82741">
				<ele>403.2012023925781</ele>
				<time>2000-01-01T00:00:00Z</time>
			</trkpt>
			<trkpt lat="59.83250624747786" lon="6.82740169984972">
				<ele>402.7889404296875</ele>
				<time>2000-01-01T00:00:00Z</time>
			</trkpt>
			<trkpt lat="59.83236" lon="6.82739">
				<ele>402.2306823730469</ele>
				<time>2000-01-01T00:00:00Z</time>
			</trkpt>
			<trkpt lat="59.83227" lon="6.82741">
				<ele>401.8852844238281</ele>
				<time>2000-01-01T00:00:00Z</time>
			</trkpt>
			<trkpt lat="59.83216" lon="6.82745">
				<ele>401.45880126953125</ele>
				<time>2000-01-01T00:00:00Z</time>
			</trkpt>
			<trkpt lat="59.83191" lon="6.82758">
				<ele>400.47296142578125</ele>
				<time>2000-01-01T00:00:00Z</time>
			</trkpt>
			<trkpt lat="59.83178" lon="6.82761">
				<ele>399.8815612792969</ele>
				<time>2000-01-01T00:00:00Z</time>
			</trkpt>
			<trkpt lat="59.83166" lon="6.82761">
				<ele>399.3392639160156</ele>
				<time>2000-01-01T00:00:00Z</time>
			</trkpt>
			<trkpt lat="59.8316" lon="6.82756">
				<ele>399.0453186035156</ele>
				<time>2000-01-01T00:00:00Z</time>
			</trkpt>
			<trkpt lat="59.83153" lon="6.82746">
				<ele>398.6559143066406</ele>
				<time>2000-01-01T00:00:00Z</time>
			</trkpt>
			<trkpt lat="59.83145" lon="6.82726">
				<ele>398.075927734375</ele>
				<time>2000-01-01T00:00:00Z</time>
			</trkpt>
			<trkpt lat="59.83144" lon="6.82722">
				<ele>397.97454833984375</ele>
				<time>2000-01-01T00:00:00Z</time>
			</trkpt>
			<trkpt lat="59.83138" lon="6.82704">
				<ele>397.4844665527344</ele>
				<time>2000-01-01T00:00:00Z</time>
			</trkpt>
			<trkpt lat="59.83134851827243" lon="6.8268983472692915">
				<ele>397.1330261230469</ele>
				<time>2000-01-01T00:00:00Z</time>
			</trkpt>
			<trkpt lat="59.831239608833044" lon="6.826408241017505">
				<ele>395.8806457519531</ele>
				<time>2000-01-01T00:00:00Z</time>
			</trkpt>
			<trkpt lat="59.83122" lon="6.82632">
				<ele>395.6805419921875</ele>
				<time>2000-01-01T00:00:00Z</time>
			</trkpt>
			<trkpt lat="59.83114046503059" lon="6.825910094125175">
				<ele>394.7691650390625</ele>
				<time>2000-01-01T00:00:00Z</time>
			</trkpt>
			<trkpt lat="59.83109" lon="6.82565">
				<ele>394.2406921386719</ele>
				<time>2000-01-01T00:00:00Z</time>
			</trkpt>
			<trkpt lat="59.83104" lon="6.82543">
				<ele>393.78302001953125</ele>
				<time>2000-01-01T00:00:00Z</time>
			</trkpt>
			<trkpt lat="59.83094" lon="6.82512">
				<ele>393.08551025390625</ele>
				<time>2000-01-01T00:00:00Z</time>
			</trkpt>
			<trkpt lat="59.83089" lon="6.82507">
				<ele>392.94110107421875</ele>
				<time>2000-01-01T00:00:00Z</time>
			</trkpt>
			<trkpt lat="59.83085" lon="6.82504">
				<ele>392.830810546875</ele>
				<time>2000-01-01T00:00:00Z</time>
			</trkpt>
			<trkpt lat="59.83086" lon="6.82492">
				<ele>392.6730651855469</ele>
				<time>2000-01-01T00:00:00Z</time>
			</trkpt>
			<trkpt lat="59.830878150362224" lon="6.824520671919453">
				<ele>392.153076171875</ele>
				<time>2000-01-01T00:00:00Z</time>
			</trkpt>
			<trkpt lat="59.83089" lon="6.82426">
				<ele>391.9679870605469</ele>
				<time>2000-01-01T00:00:00Z</time>
			</trkpt>
			<trkpt lat="59.83094303436931" lon="6.823456888567849">
				<ele>391.3952331542969</ele>
				<time>2000-01-01T00:00:00Z</time>
			</trkpt>
			<trkpt lat="59.83096" lon="6.8232">
				<ele>391.33184814453125</ele>
				<time>2000-01-01T00:00:00Z</time>
			</trkpt>
			<trkpt lat="59.8309731181884" lon="6.822924454466777">
				<ele>391.2641296386719</ele>
				<time>2000-01-01T00:00:00Z</time>
			</trkpt>
			<trkpt lat="59.831" lon="6.82236">
				<ele>391.3230895996094</ele>
				<time>2000-01-01T00:00:00Z</time>
			</trkpt>
			<trkpt lat="59.83102" lon="6.82196">
				<ele>391.3648681640625</ele>
				<time>2000-01-01T00:00:00Z</time>
			</trkpt>
			<trkpt lat="59.83104" lon="6.82181">
				<ele>391.38116455078125</ele>
				<time>2000-01-01T00:00:00Z</time>
			</trkpt>
			<trkpt lat="59.83102" lon="6.82196">
				<ele>391.41943359375</ele>
				<time>2000-01-01T00:00:00Z</time>
			</trkpt>
			<trkpt lat="59.831" lon="6.82236">
				<ele>391.51861572265625</ele>
				<time>2000-01-01T00:00:00Z</time>
			</trkpt>
			<trkpt lat="59.83097808703788" lon="6.822820135102332">
				<ele>391.63262939453125</ele>
				<time>2000-01-01T00:00:00Z</time>
			</trkpt>
			<trkpt lat="59.83096" lon="6.8232">
				<ele>391.79254150390625</ele>
				<time>2000-01-01T00:00:00Z</time>
			</trkpt>
			<trkpt lat="59.83094988978382" lon="6.823352993494968">
				<ele>391.8572082519531</ele>
				<time>2000-01-01T00:00:00Z</time>
			</trkpt>
			<trkpt lat="59.83089" lon="6.82426">
				<ele>392.3143615722656</ele>
				<time>2000-01-01T00:00:00Z</time>
			</trkpt>
			<trkpt lat="59.830882892711074" lon="6.8244163111181955">
				<ele>392.3927917480469</ele>
				<time>2000-01-01T00:00:00Z</time>
			</trkpt>
			<trkpt lat="59.83086" lon="6.82492">
				<ele>392.7217712402344</ele>
				<time>2000-01-01T00:00:00Z</time>
			</trkpt>
			<trkpt lat="59.83085" lon="6.82504">
				<ele>392.8009033203125</ele>
				<time>2000-01-01T00:00:00Z</time>
			</trkpt>
			<trkpt lat="59.830818015351824" lon="6.825479785092433">
				<ele>393.0899658203125</ele>
				<time>2000-01-01T00:00:00Z</time>
			</trkpt>
			<trkpt lat="59.83081" lon="6.82559">
				<ele>393.1582336425781</ele>
				<time>2000-01-01T00:00:00Z</time>
			</trkpt>
			<trkpt lat="59.83078776796689" lon="6.826012199695626">
				<ele>393.4184875488281</ele>
				<time>2000-01-01T00:00:00Z</time>
			</trkpt>
			<trkpt lat="59.83073" lon="6.82711">
				<ele>393.96435546875</ele>
				<time>2000-01-01T00:00:00Z</time>
			</trkpt>
			<trkpt lat="59.8307" lon="6.82746">
				<ele>394.1398620605469</ele>
				<time>2000-01-01T00:00:00Z</time>
			</trkpt>
			<trkpt lat="59.83065" lon="6.82762">
				<ele>394.1741027832031</ele>
				<time>2000-01-01T00:00:00Z</time>
			</trkpt>
			<trkpt lat="59.8306" lon="6.82773">
				<ele>394.2010498046875</ele>
				<time>2000-01-01T00:00:00Z</time>
			</trkpt>
			<trkpt lat="59.83052" lon="6.82782">
				<ele>394.2342834472656</ele>
				<time>2000-01-01T00:00:00Z</time>
			</trkpt>
			<trkpt lat="59.83044589102989" lon="6.827894108788327">
				<ele>394.2642822265625</ele>
				<time>2000-01-01T00:00:00Z</time>
			</trkpt>
			<trkpt lat="59.83038" lon="6.82796">
				<ele>394.2685546875</ele>
				<time>2000-01-01T00:00:00Z</time>
			</trkpt>
			<trkpt lat="59.83024" lon="6.82811">
				<ele>394.2778015136719</ele>
				<time>2000-01-01T00:00:00Z</time>
			</trkpt>
			<trkpt lat="59.830207727951866" lon="6.828144169610119">
				<ele>394.2799377441406</ele>
				<time>2000-01-01T00:00:00Z</time>
			</trkpt>
			<trkpt lat="59.83007" lon="6.82829">
				<ele>394.2458190917969</ele>
				<time>2000-01-01T00:00:00Z</time>
			</trkpt>
			<trkpt lat="59.82998" lon="6.82839">
				<ele>394.2232971191406</ele>
				<time>2000-01-01T00:00:00Z</time>
			</trkpt>
			<trkpt lat="59.82992" lon="6.82842">
				<ele>394.20977783203125</ele>
				<time>2000-01-01T00:00:00Z</time>
			</trkpt>
			<trkpt lat="59.8298" lon="6.82843">
				<ele>394.1832275390625</ele>
				<time>2000-01-01T00:00:00Z</time>
			</trkpt>
			<trkpt lat="59.82969" lon="6.82839">
				<ele>394.09722900390625</ele>
				<time>2000-01-01T00:00:00Z</time>
			</trkpt>
			<trkpt lat="59.82949" lon="6.82824">
				<ele>393.9328308105469</ele>
				<time>2000-01-01T00:00:00Z</time>
			</trkpt>
			<trkpt lat="59.82945552595402" lon="6.828194764171503">
				<ele>393.90106201171875</ele>
				<time>2000-01-01T00:00:00Z</time>
			</trkpt>
			<trkpt lat="59.82923072433965" lon="6.827899703941567">
				<ele>393.6035461425781</ele>
				<time>2000-01-01T00:00:00Z</time>
			</trkpt>
			<trkpt lat="59.82901" lon="6.82761">
				<ele>393.2727966308594</ele>
				<time>2000-01-01T00:00:00Z</time>
			</trkpt>
			<trkpt lat="59.8288" lon="6.82731">
				<ele>392.86578369140625</ele>
				<time>2000-01-01T00:00:00Z</time>
			</trkpt>
			<trkpt lat="59.82878634820221" lon="6.827294686031275">
				<ele>392.84100341796875</ele>
				<time>2000-01-01T00:00:00Z</time>
			</trkpt>
			<trkpt lat="59.828551824789855" lon="6.827031287862858">
				<ele>392.41619873046875</ele>
				<time>2000-01-01T00:00:00Z</time>
			</trkpt>
			<trkpt lat="59.82815" lon="6.82658">
				<ele>391.6607666015625</ele>
				<time>2000-01-01T00:00:00Z</time>
			</trkpt>
			<trkpt lat="59.82808742850177" lon="6.826490054163463">
				<ele>391.5343933105469</ele>
				<time>2000-01-01T00:00:00Z</time>
			</trkpt>
			<trkpt lat="59.82799" lon="6.82635">
				<ele>391.3410339355469</ele>
				<time>2000-01-01T00:00:00Z</time>
			</trkpt>
			<trkpt lat="59.82786428811528" lon="6.826190451326584">
				<ele>391.1011657714844</ele>
				<time>2000-01-01T00:00:00Z</time>
			</trkpt>
			<trkpt lat="59.82747" lon="6.82569">
				<ele>390.461181640625</ele>
				<time>2000-01-01T00:00:00Z</time>
			</trkpt>
			<trkpt lat="59.827408529251294" lon="6.825619599149795">
				<ele>390.3641357421875</ele>
				<time>2000-01-01T00:00:00Z</time>
			</trkpt>
			<trkpt lat="59.826941749741124" lon="6.825084913426956">
				<ele>389.82171630859375</ele>
				<time>2000-01-01T00:00:00Z</time>
			</trkpt>
			<trkpt lat="59.82692" lon="6.82506">
				<ele>389.8023376464844</ele>
				<time>2000-01-01T00:00:00Z</time>
			</trkpt>
			<trkpt lat="59.826484932389604" lon="6.82451726000007">
				<ele>389.4055480957031</ele>
				<time>2000-01-01T00:00:00Z</time>
			</trkpt>
			<trkpt lat="59.82625680625558" lon="6.8242325063981735">
				<ele>389.2066955566406</ele>
				<time>2000-01-01T00:00:00Z</time>
			</trkpt>
			<trkpt lat="59.82580055214278" lon="6.82366301089455">
				<ele>388.92547607421875</ele>
				<time>2000-01-01T00:00:00Z</time>
			</trkpt>
			<trkpt lat="59.82557242416401" lon="6.823378268992667">
				<ele>388.8614807128906</ele>
				<time>2000-01-01T00:00:00Z</time>
			</trkpt>
			<trkpt lat="59.825344295570375" lon="6.82309353099063">
				<ele>388.8443908691406</ele>
				<time>2000-01-01T00:00:00Z</time>
			</trkpt>
			<trkpt lat="59.82511616636188" lon="6.82280879688836">
				<ele>388.94110107421875</ele>
				<time>2000-01-01T00:00:00Z</time>
			</trkpt>
			<trkpt lat="59.824888036538525" lon="6.82252406668578">
				<ele>389.1304626464844</ele>
				<time>2000-01-01T00:00:00Z</time>
			</trkpt>
			<trkpt lat="59.82465990610033" lon="6.8222393403828105">
				<ele>389.3921203613281</ele>
				<time>2000-01-01T00:00:00Z</time>
			</trkpt>
			<trkpt lat="59.8244317750473" lon="6.821954617979372">
				<ele>389.7301025390625</ele>
				<time>2000-01-01T00:00:00Z</time>
			</trkpt>
			<trkpt lat="59.82438" lon="6.82189">
				<ele>389.8414001464844</ele>
				<time>2000-01-01T00:00:00Z</time>
			</trkpt>
			<trkpt lat="59.824201354677996" lon="6.8216773301004725">
				<ele>390.220458984375</ele>
				<time>2000-01-01T00:00:00Z</time>
			</trkpt>
			<trkpt lat="59.82397026426134" lon="6.821402219390746">
				<ele>390.8182067871094</ele>
				<time>2000-01-01T00:00:00Z</time>
			</trkpt>
			<trkpt lat="59.82396" lon="6.82139">
				<ele>390.8432922363281</ele>
				<time>2000-01-01T00:00:00Z</time>
			</trkpt>
			<trkpt lat="59.82354" lon="6.82084">
				<ele>391.8970947265625</ele>
				<time>2000-01-01T00:00:00Z</time>
			</trkpt>
			<trkpt lat="59.82345" lon="6.82067">
				<ele>392.1717529296875</ele>
				<time>2000-01-01T00:00:00Z</time>
			</trkpt>
			<trkpt lat="59.82334298650958" lon="6.820409711050342">
				<ele>392.5461120605469</ele>
				<time>2000-01-01T00:00:00Z</time>
			</trkpt>
			<trkpt lat="59.82308" lon="6.81977">
				<ele>393.1101379394531</ele>
				<time>2000-01-01T00:00:00Z</time>
			</trkpt>
			<trkpt lat="59.82299617532865" lon="6.819590378310966">
				<ele>393.27740478515625</ele>
				<time>2000-01-01T00:00:00Z</time>
			</trkpt>
			<trkpt lat="59.82287" lon="6.81932">
				<ele>393.2921447753906</ele>
				<time>2000-01-01T00:00:00Z</time>
			</trkpt>
			<trkpt lat="59.82280304668045" lon="6.819219570264847">
				<ele>393.298828125</ele>
				<time>2000-01-01T00:00:00Z</time>
			</trkpt>
			<trkpt lat="59.82275" lon="6.81914">
				<ele>393.1960754394531</ele>
				<time>2000-01-01T00:00:00Z</time>
			</trkpt>
			<trkpt lat="59.82244" lon="6.81884">
				<ele>392.6628112792969</ele>
				<time>2000-01-01T00:00:00Z</time>
			</trkpt>
			<trkpt lat="59.82237" lon="6.81868">
				<ele>392.4978942871094</ele>
				<time>2000-01-01T00:00:00Z</time>
			</trkpt>
			<trkpt lat="59.82227" lon="6.81847">
				<ele>392.2729797363281</ele>
				<time>2000-01-01T00:00:00Z</time>
			</trkpt>
			<trkpt lat="59.82226" lon="6.81838">
				<ele>392.1320495605469</ele>
				<time>2000-01-01T00:00:00Z</time>
			</trkpt>
			<trkpt lat="59.82227" lon="6.81827">
				<ele>391.95623779296875</ele>
				<time>2000-01-01T00:00:00Z</time>
			</trkpt>
			<trkpt lat="59.82231" lon="6.81803">
				<ele>391.55853271484375</ele>
				<time>2000-01-01T00:00:00Z</time>
			</trkpt>
			<trkpt lat="59.82236" lon="6.81779">
				<ele>391.1499328613281</ele>
				<time>2000-01-01T00:00:00Z</time>
			</trkpt>
			<trkpt lat="59.82237049644105" lon="6.817685034499003">
				<ele>390.9815979003906</ele>
				<time>2000-01-01T00:00:00Z</time>
			</trkpt>
			<trkpt lat="59.82238" lon="6.81759">
				<ele>390.7884521484375</ele>
				<time>2000-01-01T00:00:00Z</time>
			</trkpt>
			<trkpt lat="59.8224" lon="6.81734">
				<ele>390.2838439941406</ele>
				<time>2000-01-01T00:00:00Z</time>
			</trkpt>
			<trkpt lat="59.8224" lon="6.81716">
				<ele>389.9250183105469</ele>
				<time>2000-01-01T00:00:00Z</time>
			</trkpt>
			<trkpt lat="59.822349665965746" lon="6.8166279053753565">
				<ele>388.72918701171875</ele>
				<time>2000-01-01T00:00:00Z</time>
			</trkpt>
			<trkpt lat="59.82233" lon="6.81642">
				<ele>388.3298645019531</ele>
				<time>2000-01-01T00:00:00Z</time>
			</trkpt>
			<trkpt lat="59.82231" lon="6.81586">
				<ele>387.2701721191406</ele>
				<time>2000-01-01T00:00:00Z</time>
			</trkpt>
			<trkpt lat="59.82232" lon="6.81579">
				<ele>387.1328125</ele>
				<time>2000-01-01T00:00:00Z</time>
			</trkpt>
			<trkpt lat="59.82234" lon="6.81575">
				<ele>387.0263366699219</ele>
				<time>2000-01-01T00:00:00Z</time>
			</trkpt>
			<trkpt lat="59.8224" lon="6.81573">
				<ele>386.7978820800781</ele>
				<time>2000-01-01T00:00:00Z</time>
			</trkpt>
			<trkpt lat="59.8225" lon="6.81575">
				<ele>386.48223876953125</ele>
				<time>2000-01-01T00:00:00Z</time>
			</trkpt>
			<trkpt lat="59.82283" lon="6.81606">
				<ele>385.33624267578125</ele>
				<time>2000-01-01T00:00:00Z</time>
			</trkpt>
			<trkpt lat="59.82299" lon="6.81609">
				<ele>384.9649963378906</ele>
				<time>2000-01-01T00:00:00Z</time>
			</trkpt>
			<trkpt lat="59.82307" lon="6.81608">
				<ele>384.7799377441406</ele>
				<time>2000-01-01T00:00:00Z</time>
			</trkpt>
			<trkpt lat="59.82318" lon="6.81605">
				<ele>384.5235900878906</ele>
				<time>2000-01-01T00:00:00Z</time>
			</trkpt>
			<trkpt lat="59.823457086584085" lon="6.8159246510016285">
				<ele>384.2335510253906</ele>
				<time>2000-01-01T00:00:00Z</time>
			</trkpt>
			<trkpt lat="59.8236" lon="6.81586">
				<ele>384.0941162109375</ele>
				<time>2000-01-01T00:00:00Z</time>
			</trkpt>
			<trkpt lat="59.823717926046264" lon="6.8157922425554505">
				<ele>383.9773254394531</ele>
				<time>2000-01-01T00:00:00Z</time>
			</trkpt>
			<trkpt lat="59.82423539779061" lon="6.8154949823754905">
				<ele>383.9169921875</ele>
				<time>2000-01-01T00:00:00Z</time>
			</trkpt>
			<trkpt lat="59.82449413196181" lon="6.815346349655275">
				<ele>383.97967529296875</ele>
				<time>2000-01-01T00:00:00Z</time>
			</trkpt>
			<trkpt lat="59.82454" lon="6.81532">
				<ele>383.9952392578125</ele>
				<time>2000-01-01T00:00:00Z</time>
			</trkpt>
			<trkpt lat="59.82495" lon="6.81512">
				<ele>384.1328430175781</ele>
				<time>2000-01-01T00:00:00Z</time>
			</trkpt>
			<trkpt lat="59.82501757684752" lon="6.815095103093704">
				<ele>384.1552429199219</ele>
				<time>2000-01-01T00:00:00Z</time>
			</trkpt>
			<trkpt lat="59.82514" lon="6.81505">
				<ele>384.1493835449219</ele>
				<time>2000-01-01T00:00:00Z</time>
			</trkpt>
			<trkpt lat="59.82542" lon="6.81502">
				<ele>384.1361999511719</ele>
				<time>2000-01-01T00:00:00Z</time>
			</trkpt>
			<trkpt lat="59.82557" lon="6.81508">
				<ele>384.1309509277344</ele>
				<time>2000-01-01T00:00:00Z</time>
			</trkpt>
			<trkpt lat="59.82578" lon="6.81524">
				<ele>384.123291015625</ele>
				<time>2000-01-01T00:00:00Z</time>
			</trkpt>
			<trkpt lat="59.825802862209784" lon="6.815260784083237">
				<ele>384.1224365234375</ele>
				<time>2000-01-01T00:00:00Z</time>
			</trkpt>
			<trkpt lat="59.82589" lon="6.81534">
				<ele>384.12152099609375</ele>
				<time>2000-01-01T00:00:00Z</time>
			</trkpt>
			<trkpt lat="59.826043313326664" lon="6.815501602583716">
				<ele>384.1199035644531</ele>
				<time>2000-01-01T00:00:00Z</time>
			</trkpt>
			<trkpt lat="59.82626" lon="6.81573">
				<ele>384.11578369140625</ele>
				<time>2000-01-01T00:00:00Z</time>
			</trkpt>
			<trkpt lat="59.82652135192374" lon="6.815995259533963">
				<ele>384.1108703613281</ele>
				<time>2000-01-01T00:00:00Z</time>
			</trkpt>
			<trkpt lat="59.82676125029249" lon="6.8162387330688485">
				<ele>384.1087341308594</ele>
				<time>2000-01-01T00:00:00Z</time>
			</trkpt>
			<trkpt lat="59.82693" lon="6.81641">
				<ele>384.0942687988281</ele>
				<time>2000-01-01T00:00:00Z</time>
			</trkpt>
			<trkpt lat="59.82715" lon="6.8166">
				<ele>384.075927734375</ele>
				<time>2000-01-01T00:00:00Z</time>
			</trkpt>
			<trkpt lat="59.827249309671515" lon="6.816691033885839">
				<ele>384.06756591796875</ele>
				<time>2000-01-01T00:00:00Z</time>
			</trkpt>
			<trkpt lat="59.82727" lon="6.81671">
				<ele>384.0611572265625</ele>
				<time>2000-01-01T00:00:00Z</time>
			</trkpt>
			<trkpt lat="59.8275077513887" lon="6.816839683325389">
				<ele>383.99169921875</ele>
				<time>2000-01-01T00:00:00Z</time>
			</trkpt>
			<trkpt lat="59.82771" lon="6.81695">
				<ele>383.91326904296875</ele>
				<time>2000-01-01T00:00:00Z</time>
			</trkpt>
			<trkpt lat="59.82787" lon="6.81703">
				<ele>383.8515930175781</ele>
				<time>2000-01-01T00:00:00Z</time>
			</trkpt>
			<trkpt lat="59.82785" lon="6.8169">
				<ele>383.8168029785156</ele>
				<time>2000-01-01T00:00:00Z</time>
			</trkpt>
			<trkpt lat="59.82785" lon="6.81679">
				<ele>383.7884521484375</ele>
				<time>2000-01-01T00:00:00Z</time>
			</trkpt>
			<trkpt lat="59.82785" lon="6.81657">
				<ele>383.7317810058594</ele>
				<time>2000-01-01T00:00:00Z</time>
			</trkpt>
			<trkpt lat="59.82787" lon="6.8162">
				<ele>383.6358947753906</ele>
				<time>2000-01-01T00:00:00Z</time>
			</trkpt>
			<trkpt lat="59.82786842041043" lon="6.816176308173617">
				<ele>383.6297302246094</ele>
				<time>2000-01-01T00:00:00Z</time>
			</trkpt>
			<trkpt lat="59.82786" lon="6.81605">
				<ele>383.5789489746094</ele>
				<time>2000-01-01T00:00:00Z</time>
			</trkpt>
			<trkpt lat="59.82785" lon="6.81596">
				<ele>383.542236328125</ele>
				<time>2000-01-01T00:00:00Z</time>
			</trkpt>
			<trkpt lat="59.82782" lon="6.81582">
				<ele>383.4815673828125</ele>
				<time>2000-01-01T00:00:00Z</time>
			</trkpt>
			<trkpt lat="59.82779" lon="6.81575">
				<ele>383.4449157714844</ele>
				<time>2000-01-01T00:00:00Z</time>
			</trkpt>
			<trkpt lat="59.82776446098375" lon="6.815698922137528">
				<ele>383.41619873046875</ele>
				<time>2000-01-01T00:00:00Z</time>
			</trkpt>
			<trkpt lat="59.82773" lon="6.81563">
				<ele>383.36895751953125</ele>
				<time>2000-01-01T00:00:00Z</time>
			</trkpt>
			<trkpt lat="59.82769" lon="6.81551">
				<ele>383.2989501953125</ele>
				<time>2000-01-01T00:00:00Z</time>
			</trkpt>
			<trkpt lat="59.82766" lon="6.81537">
				<ele>383.2249755859375</ele>
				<time>2000-01-01T00:00:00Z</time>
			</trkpt>
			<trkpt lat="59.82765" lon="6.81509">
				<ele>383.08856201171875</ele>
				<time>2000-01-01T00:00:00Z</time>
			</trkpt>
			<trkpt lat="59.827624289139195" lon="6.814695768819922">
				<ele>382.89532470703125</ele>
				<time>2000-01-01T00:00:00Z</time>
			</trkpt>
			<trkpt lat="59.82762" lon="6.81463">
				<ele>382.85894775390625</ele>
				<time>2000-01-01T00:00:00Z</time>
			</trkpt>
			<trkpt lat="59.82758" lon="6.81423">
				<ele>382.6353454589844</ele>
				<time>2000-01-01T00:00:00Z</time>
			</trkpt>
			<trkpt lat="59.827571017558185" lon="6.814170981862328">
				<ele>382.6015319824219</ele>
				<time>2000-01-01T00:00:00Z</time>
			</trkpt>
			<trkpt lat="59.82751" lon="6.81377">
				<ele>382.33489990234375</ele>
				<time>2000-01-01T00:00:00Z</time>
			</trkpt>
			<trkpt lat="59.82747" lon="6.81353">
				<ele>382.1739807128906</ele>
				<time>2000-01-01T00:00:00Z</time>
			</trkpt>
			<trkpt lat="59.827390222339055" lon="6.813163023713448">
				<ele>381.91949462890625</ele>
				<time>2000-01-01T00:00:00Z</time>
			</trkpt>
			<trkpt lat="59.82737" lon="6.81307">
				<ele>381.8435363769531</ele>
				<time>2000-01-01T00:00:00Z</time>
			</trkpt>
			<trkpt lat="59.82734" lon="6.81288">
				<ele>381.6942443847656</ele>
				<time>2000-01-01T00:00:00Z</time>
			</trkpt>
			<trkpt lat="59.827307661229725" lon="6.812653659531334">
				<ele>381.5178527832031</ele>
				<time>2000-01-01T00:00:00Z</time>
			</trkpt>
			<trkpt lat="59.82721" lon="6.81197">
				<ele>380.9400634765625</ele>
				<time>2000-01-01T00:00:00Z</time>
			</trkpt>
			<trkpt lat="59.82715" lon="6.81179">
				<ele>380.76446533203125</ele>
				<time>2000-01-01T00:00:00Z</time>
			</trkpt>
			<trkpt lat="59.82712522420001" lon="6.8116537336687495">
				<ele>380.64666748046875</ele>
				<time>2000-01-01T00:00:00Z</time>
			</trkpt>
			<trkpt lat="59.82711" lon="6.81157">
				<ele>380.5699157714844</ele>
				<time>2000-01-01T00:00:00Z</time>
			</trkpt>
			<trkpt lat="59.8271" lon="6.8114">
				<ele>380.42236328125</ele>
				<time>2000-01-01T00:00:00Z</time>
			</trkpt>
			<trkpt lat="59.82708" lon="6.81101">
				<ele>380.0843811035156</ele>
				<time>2000-01-01T00:00:00Z</time>
			</trkpt>
			<trkpt lat="59.82707" lon="6.81077">
				<ele>379.87677001953125</ele>
				<time>2000-01-01T00:00:00Z</time>
			</trkpt>
			<trkpt lat="59.8271" lon="6.81051">
				<ele>379.6974792480469</ele>
				<time>2000-01-01T00:00:00Z</time>
			</trkpt>
			<trkpt lat="59.82713" lon="6.81031">
				<ele>379.5576477050781</ele>
				<time>2000-01-01T00:00:00Z</time>
			</trkpt>
			<trkpt lat="59.8272" lon="6.8101">
				<ele>379.3924255371094</ele>
				<time>2000-01-01T00:00:00Z</time>
			</trkpt>
			<trkpt lat="59.82736562986985" lon="6.8096942062828125">
				<ele>379.18701171875</ele>
				<time>2000-01-01T00:00:00Z</time>
			</trkpt>
			<trkpt lat="59.8274" lon="6.80961">
				<ele>379.17388916015625</ele>
				<time>2000-01-01T00:00:00Z</time>
			</trkpt>
			<trkpt lat="59.82755" lon="6.80915">
				<ele>379.10748291015625</ele>
				<time>2000-01-01T00:00:00Z</time>
			</trkpt>
			<trkpt lat="59.82756" lon="6.80912">
				<ele>379.1031188964844</ele>
				<time>2000-01-01T00:00:00Z</time>
			</trkpt>
			<trkpt lat="59.82766" lon="6.80882">
				<ele>379.0595397949219</ele>
				<time>2000-01-01T00:00:00Z</time>
			</trkpt>
			<trkpt lat="59.82766439512777" lon="6.808803297370075">
				<ele>379.0572509765625</ele>
				<time>2000-01-01T00:00:00Z</time>
			</trkpt>
			<trkpt lat="59.82771" lon="6.80863">
				<ele>379.1726989746094</ele>
				<time>2000-01-01T00:00:00Z</time>
			</trkpt>
			<trkpt lat="59.82772" lon="6.80844">
				<ele>379.28546142578125</ele>
				<time>2000-01-01T00:00:00Z</time>
			</trkpt>
			<trkpt lat="59.82772" lon="6.80823">
				<ele>379.409423828125</ele>
				<time>2000-01-01T00:00:00Z</time>
			</trkpt>
			<trkpt lat="59.82777" lon="6.80817">
				<ele>379.4779968261719</ele>
				<time>2000-01-01T00:00:00Z</time>
			</trkpt>
			<trkpt lat="59.82782" lon="6.80811">
				<ele>379.54656982421875</ele>
				<time>2000-01-01T00:00:00Z</time>
			</trkpt>
			<trkpt lat="59.82787" lon="6.80797">
				<ele>379.64794921875</ele>
				<time>2000-01-01T00:00:00Z</time>
			</trkpt>
			<trkpt lat="59.82788699497225" lon="6.80790768497856">
				<ele>379.6897888183594</ele>
				<time>2000-01-01T00:00:00Z</time>
			</trkpt>
			<trkpt lat="59.8279" lon="6.80786">
				<ele>379.74127197265625</ele>
				<time>2000-01-01T00:00:00Z</time>
			</trkpt>
			<trkpt lat="59.82793" lon="6.80766">
				<ele>379.9393310546875</ele>
				<time>2000-01-01T00:00:00Z</time>
			</trkpt>
			<trkpt lat="59.82796" lon="6.80751">
				<ele>380.0924987792969</ele>
				<time>2000-01-01T00:00:00Z</time>
			</trkpt>
			<trkpt lat="59.82797" lon="6.80748">
				<ele>380.1266784667969</ele>
				<time>2000-01-01T00:00:00Z</time>
			</trkpt>
			<trkpt lat="59.82801" lon="6.80741">
				<ele>380.22723388671875</ele>
				<time>2000-01-01T00:00:00Z</time>
			</trkpt>
			<trkpt lat="59.82806" lon="6.80734">
				<ele>380.34271240234375</ele>
				<time>2000-01-01T00:00:00Z</time>
			</trkpt>
			<trkpt lat="59.82814" lon="6.80728">
				<ele>380.5600280761719</ele>
				<time>2000-01-01T00:00:00Z</time>
			</trkpt>
			<trkpt lat="59.82827" lon="6.80732">
				<ele>380.8944091796875</ele>
				<time>2000-01-01T00:00:00Z</time>
			</trkpt>
			<trkpt lat="59.82835" lon="6.8073">
				<ele>381.0993347167969</ele>
				<time>2000-01-01T00:00:00Z</time>
			</trkpt>
			<trkpt lat="59.82838" lon="6.80743">
				<ele>381.2820739746094</ele>
				<time>2000-01-01T00:00:00Z</time>
			</trkpt>
			<trkpt lat="59.8285" lon="6.8078">
				<ele>381.8699645996094</ele>
				<time>2000-01-01T00:00:00Z</time>
			</trkpt>
			<trkpt lat="59.82855" lon="6.80792">
				<ele>382.07806396484375</ele>
				<time>2000-01-01T00:00:00Z</time>
			</trkpt>
			<trkpt lat="59.82859724133487" lon="6.808000489833437">
				<ele>382.2432861328125</ele>
				<time>2000-01-01T00:00:00Z</time>
			</trkpt>
			<trkpt lat="59.82882" lon="6.80838">
				<ele>383.0110168457031</ele>
				<time>2000-01-01T00:00:00Z</time>
			</trkpt>
			<trkpt lat="59.82895" lon="6.80864">
				<ele>383.4935607910156</ele>
				<time>2000-01-01T00:00:00Z</time>
			</trkpt>
			<trkpt lat="59.82899159229381" lon="6.808728860933382">
				<ele>383.6533203125</ele>
				<time>2000-01-01T00:00:00Z</time>
			</trkpt>
			<trkpt lat="59.82917" lon="6.80911">
				<ele>384.312744140625</ele>
				<time>2000-01-01T00:00:00Z</time>
			</trkpt>
			<trkpt lat="59.82939" lon="6.80964">
				<ele>385.1803283691406</ele>
				<time>2000-01-01T00:00:00Z</time>
			</trkpt>
			<trkpt lat="59.82948" lon="6.80976">
				<ele>385.4109191894531</ele>
				<time>2000-01-01T00:00:00Z</time>
			</trkpt>
			<trkpt lat="59.82958" lon="6.80987">
				<ele>385.654052734375</ele>
				<time>2000-01-01T00:00:00Z</time>
			</trkpt>
			<trkpt lat="59.82967" lon="6.80987">
				<ele>385.8455505371094</ele>
				<time>2000-01-01T00:00:00Z</time>
			</trkpt>
			<trkpt lat="59.82982" lon="6.80981">
				<ele>386.1711120605469</ele>
				<time>2000-01-01T00:00:00Z</time>
			</trkpt>
			<trkpt lat="59.82987" lon="6.8098">
				<ele>386.2677307128906</ele>
				<time>2000-01-01T00:00:00Z</time>
			</trkpt>
			<trkpt lat="59.82994" lon="6.80982">
				<ele>386.40228271484375</ele>
				<time>2000-01-01T00:00:00Z</time>
			</trkpt>
			<trkpt lat="59.83001" lon="6.80991">
				<ele>386.56085205078125</ele>
				<time>2000-01-01T00:00:00Z</time>
			</trkpt>
			<trkpt lat="59.83007" lon="6.81002">
				<ele>386.7157287597656</ele>
				<time>2000-01-01T00:00:00Z</time>
			</trkpt>
			<trkpt lat="59.83008" lon="6.81007">
				<ele>386.7509460449219</ele>
				<time>2000-01-01T00:00:00Z</time>
			</trkpt>
			<trkpt lat="59.83012" lon="6.81032">
				<ele>386.92266845703125</ele>
				<time>2000-01-01T00:00:00Z</time>
			</trkpt>
			<trkpt lat="59.83019" lon="6.81058">
				<ele>387.1157531738281</ele>
				<time>2000-01-01T00:00:00Z</time>
			</trkpt>
			<trkpt lat="59.83026" lon="6.81076">
				<ele>387.2643127441406</ele>
				<time>2000-01-01T00:00:00Z</time>
			</trkpt>
			<trkpt lat="59.83016" lon="6.81073">
				<ele>387.3113708496094</ele>
				<time>2000-01-01T00:00:00Z</time>
			</trkpt>
			<trkpt lat="59.83008" lon="6.81072">
				<ele>387.3486633300781</ele>
				<time>2000-01-01T00:00:00Z</time>
			</trkpt>
			<trkpt lat="59.83001" lon="6.81076">
				<ele>387.382568359375</ele>
				<time>2000-01-01T00:00:00Z</time>
			</trkpt>
			<trkpt lat="59.82993" lon="6.81085">
				<ele>387.4253234863281</ele>
				<time>2000-01-01T00:00:00Z</time>
			</trkpt>
			<trkpt lat="59.82986" lon="6.81094">
				<ele>387.4640808105469</ele>
				<time>2000-01-01T00:00:00Z</time>
			</trkpt>
			<trkpt lat="59.82978" lon="6.81102">
				<ele>387.505126953125</ele>
				<time>2000-01-01T00:00:00Z</time>
			</trkpt>
			<trkpt lat="59.82975" lon="6.81128">
				<ele>387.4520568847656</ele>
				<time>2000-01-01T00:00:00Z</time>
			</trkpt>
			<trkpt lat="59.82967" lon="6.81161">
				<ele>387.37921142578125</ele>
				<time>2000-01-01T00:00:00Z</time>
			</trkpt>
			<trkpt lat="59.829631196088535" lon="6.811739346084911">
				<ele>387.3492736816406</ele>
				<time>2000-01-01T00:00:00Z</time>
			</trkpt>
			<trkpt lat="59.82961" lon="6.81181">
				<ele>387.3343505859375</ele>
				<time>2000-01-01T00:00:00Z</time>
			</trkpt>
			<trkpt lat="59.82956" lon="6.81187">
				<ele>387.31329345703125</ele>
				<time>2000-01-01T00:00:00Z</time>
			</trkpt>
			<trkpt lat="59.82953" lon="6.81199">
				<ele>387.28900146484375</ele>
				<time>2000-01-01T00:00:00Z</time>
			</trkpt>
			<trkpt lat="59.82952" lon="6.81222">
				<ele>387.24822998046875</ele>
				<time>2000-01-01T00:00:00Z</time>
			</trkpt>
			<trkpt lat="59.82953" lon="6.81188">
				<ele>387.5514831542969</ele>
				<time>2000-01-01T00:00:00Z</time>
			</trkpt>
			<trkpt lat="59.82956" lon="6.81187">
				<ele>387.6053466796875</ele>
				<time>2000-01-01T00:00:00Z</time>
			</trkpt>
			<trkpt lat="59.82961" lon="6.81181">
				<ele>387.70880126953125</ele>
				<time>2000-01-01T00:00:00Z</time>
			</trkpt>
			<trkpt lat="59.82967" lon="6.81161">
				<ele>387.91619873046875</ele>
				<time>2000-01-01T00:00:00Z</time>
			</trkpt>
			<trkpt lat="59.82975" lon="6.81128">
				<ele>388.2424011230469</ele>
				<time>2000-01-01T00:00:00Z</time>
			</trkpt>
			<trkpt lat="59.82978" lon="6.81102">
				<ele>388.4806213378906</ele>
				<time>2000-01-01T00:00:00Z</time>
			</trkpt>
			<trkpt lat="59.82986" lon="6.81094">
				<ele>388.8809509277344</ele>
				<time>2000-01-01T00:00:00Z</time>
			</trkpt>
			<trkpt lat="59.82993" lon="6.81085">
				<ele>389.2535705566406</ele>
				<time>2000-01-01T00:00:00Z</time>
			</trkpt>
			<trkpt lat="59.83001" lon="6.81076">
				<ele>389.6644592285156</ele>
				<time>2000-01-01T00:00:00Z</time>
			</trkpt>
			<trkpt lat="59.83008" lon="6.81072">
				<ele>389.9901123046875</ele>
				<time>2000-01-01T00:00:00Z</time>
			</trkpt>
			<trkpt lat="59.83016" lon="6.81073">
				<ele>390.3502197265625</ele>
				<time>2000-01-01T00:00:00Z</time>
			</trkpt>
			<trkpt lat="59.83026" lon="6.81076">
				<ele>391.26812744140625</ele>
				<time>2000-01-01T00:00:00Z</time>
			</trkpt>
			<trkpt lat="59.83033" lon="6.81082">
				<ele>391.7838134765625</ele>
				<time>2000-01-01T00:00:00Z</time>
			</trkpt>
			<trkpt lat="59.83047" lon="6.81101">
				<ele>392.9304504394531</ele>
				<time>2000-01-01T00:00:00Z</time>
			</trkpt>
			<trkpt lat="59.83054" lon="6.8111">
				<ele>393.4943542480469</ele>
				<time>2000-01-01T00:00:00Z</time>
			</trkpt>
			<trkpt lat="59.83058687235086" lon="6.811170841202795">
				<ele>393.89263916015625</ele>
				<time>2000-01-01T00:00:00Z</time>
			</trkpt>
			<trkpt lat="59.83099" lon="6.81178">
				<ele>398.1310729980469</ele>
				<time>2000-01-01T00:00:00Z</time>
			</trkpt>
			<trkpt lat="59.83101577126845" lon="6.811819138535252">
				<ele>398.40252685546875</ele>
				<time>2000-01-01T00:00:00Z</time>
			</trkpt>
			<trkpt lat="59.83122986149499" lon="6.812144234283534">
				<ele>400.04644775390625</ele>
				<time>2000-01-01T00:00:00Z</time>
			</trkpt>
			<trkpt lat="59.83126" lon="6.81219">
				<ele>400.25238037109375</ele>
				<time>2000-01-01T00:00:00Z</time>
			</trkpt>
			<trkpt lat="59.83144924690167" lon="6.812454945690757">
				<ele>401.50933837890625</ele>
				<time>2000-01-01T00:00:00Z</time>
			</trkpt>
			<trkpt lat="59.83146" lon="6.81247">
				<ele>401.5557861328125</ele>
				<time>2000-01-01T00:00:00Z</time>
			</trkpt>
			<trkpt lat="59.83157" lon="6.81261">
				<ele>402.0171813964844</ele>
				<time>2000-01-01T00:00:00Z</time>
			</trkpt>
			<trkpt lat="59.83168" lon="6.81277">
				<ele>402.4986267089844</ele>
				<time>2000-01-01T00:00:00Z</time>
			</trkpt>
			<trkpt lat="59.83159" lon="6.81298">
				<ele>402.572998046875</ele>
				<time>2000-01-01T00:00:00Z</time>
			</trkpt>
			<trkpt lat="59.83159" lon="6.81307">
				<ele>402.59716796875</ele>
				<time>2000-01-01T00:00:00Z</time>
			</trkpt>
			<trkpt lat="59.83156" lon="6.81318">
				<ele>402.6307373046875</ele>
				<time>2000-01-01T00:00:00Z</time>
			</trkpt>
			<trkpt lat="59.83157" lon="6.8133">
				<ele>402.6633605957031</ele>
				<time>2000-01-01T00:00:00Z</time>
			</trkpt>
			<trkpt lat="59.83156" lon="6.81362">
				<ele>402.7467956542969</ele>
				<time>2000-01-01T00:00:00Z</time>
			</trkpt>
			<trkpt lat="59.83157" lon="6.81383">
				<ele>402.4829406738281</ele>
				<time>2000-01-01T00:00:00Z</time>
			</trkpt>
			<trkpt lat="59.83169" lon="6.81435">
				<ele>401.7672119140625</ele>
				<time>2000-01-01T00:00:00Z</time>
			</trkpt>
			<trkpt lat="59.83171" lon="6.81444">
				<ele>401.64349365234375</ele>
				<time>2000-01-01T00:00:00Z</time>
			</trkpt>
			<trkpt lat="59.8317" lon="6.81454">
				<ele>401.4698791503906</ele>
				<time>2000-01-01T00:00:00Z</time>
			</trkpt>
			<trkpt lat="59.83164" lon="6.81471">
				<ele>401.1161804199219</ele>
				<time>2000-01-01T00:00:00Z</time>
			</trkpt>
			<trkpt lat="59.83157" lon="6.81482">
				<ele>400.8139953613281</ele>
				<time>2000-01-01T00:00:00Z</time>
			</trkpt>
			<trkpt lat="59.83122" lon="6.81508">
				<ele>399.549072265625</ele>
				<time>2000-01-01T00:00:00Z</time>
			</trkpt>
			<trkpt lat="59.83127" lon="6.81543">
				<ele>399.23779296875</ele>
				<time>2000-01-01T00:00:00Z</time>
			</trkpt>
			<trkpt lat="59.831326308833255" lon="6.815730328315008">
				<ele>398.9635925292969</ele>
				<time>2000-01-01T00:00:00Z</time>
			</trkpt>
			<trkpt lat="59.83142" lon="6.81623">
				<ele>398.560791015625</ele>
				<time>2000-01-01T00:00:00Z</time>
			</trkpt>
			<trkpt lat="59.8315" lon="6.81662">
				<ele>398.242919921875</ele>
				<time>2000-01-01T00:00:00Z</time>
			</trkpt>
			<trkpt lat="59.83165" lon="6.8165">
				<ele>398.1810607910156</ele>
				<time>2000-01-01T00:00:00Z</time>
			</trkpt>
			<trkpt lat="59.8317" lon="6.81669">
				<ele>398.2354431152344</ele>
				<time>2000-01-01T00:00:00Z</time>
			</trkpt>
			<trkpt lat="59.83178" lon="6.81706">
				<ele>398.3376159667969</ele>
				<time>2000-01-01T00:00:00Z</time>
			</trkpt>
			<trkpt lat="59.83183" lon="6.81719">
				<ele>398.379150390625</ele>
				<time>2000-01-01T00:00:00Z</time>
			</trkpt>
			<trkpt lat="59.831859543001094" lon="6.81725320340349">
				<ele>398.4010314941406</ele>
				<time>2000-01-01T00:00:00Z</time>
			</trkpt>
			<trkpt lat="59.83222651481515" lon="6.818037728680298">
				<ele>398.6849365234375</ele>
				<time>2000-01-01T00:00:00Z</time>
			</trkpt>
			<trkpt lat="59.83241" lon="6.81843">
				<ele>398.5068054199219</ele>
				<time>2000-01-01T00:00:00Z</time>
			</trkpt>
		</trkseg>
	</trk>
	<wpt lat="59.822914" lon="6.813634">
		<name>Røldalspelet</name>
		<sym>generic</sym>
	</wpt>
	<wpt lat="59.822196" lon="6.817984">
		<name>7 Hydro – kraftfortellingen i Røldal</name>
		<sym>generic</sym>
	</wpt>
	<wpt lat="59.824194" lon="6.815846">
		<name>8 Kanalen</name>
		<sym>generic</sym>
	</wpt>
	<wpt lat="59.827018" lon="6.811">
		<name>Fiskeplass</name>
		<sym>generic</sym>
	</wpt>
	<wpt lat="59.829025" lon="6.809055">
		<name>10 Laksasteinen</name>
		<sym>generic</sym>
	</wpt>
	<wpt lat="59.83001" lon="6.810659">
		<name>11 Jernalderutstilling og gravhaug på Seim</name>
		<sym>generic</sym>
	</wpt>
	<wpt lat="59.833326" lon="6.81688">
		<name>1. Steinparken</name>
		<sym>generic</sym>
	</wpt>
	<wpt lat="59.834999" lon="6.824841">
		<name>4. Arkitektur i Røldal</name>
		<sym>generic</sym>
	</wpt>
	<wpt lat="59.830891" lon="6.821377">
		<name>6. Fortelling om krusifikset for barn</name>
		<sym>generic</sym>
	</wpt>
	<wpt lat="59.829603" lon="6.828127">
		<name>4. Arkitektur i Røldal</name>
		<sym>generic</sym>
	</wpt>
	<wpt lat="59.834969" lon="6.82472">
		<name>3. Røldal Bygdetun</name>
		<sym>generic</sym>
	</wpt>
	<wpt lat="59.83451" lon="6.828103">
		<name>5. Røldal Stavkyrkje og pilgrimshistorien</name>
		<sym>generic</sym>
	</wpt>
	<wpt lat="59.830999888" lon="6.822359562">
		<name>Røldal stavkyrkje</name>
		<sym>generic</sym>
	</wpt>
	<wpt lat="59.829810301" lon="6.811060756">
		<name>Seim camping</name>
		<sym>campsite</sym>
	</wpt>
	<wpt lat="59.829513" lon="6.812215">
		<name>Jernalderutstilling og gravhaug på Seim</name>
		<sym>generic</sym>
	</wpt>
	<wpt lat="59.833366" lon="6.817197">
		<name>2. Kalvatræet</name>
		<sym>generic</sym>
	</wpt>
</gpx>